"Id","Name","StreetAddress","PostalCode","Locality","Region","Country","PhoneNumber","Email"
1,"Golden Gate Badminton Club","190 Constitution Drive","94025","Menlo Park","CA","U.S.A.","",""
2,"Shula's Hotel and Golf Club","6842 Main Street","","Miami Lakes","Florida","U.S.A.","(305) 820-8100","adriana.torres@donshulahotel.com"
3,"Thomas A Stewart Secondary School","1009 Armour Road North","","Peterborough","ON","Canada","",""
4,"Bay Badminton","1611 Adrian Road","94010","Burlingame","CA","U.S.A.","650-692-1611","info@baybadminton.com"
5,"Shuswap Middle School","","","Salmon Arm","BC","Canada","",""
6,"Salmon Arm Secondary","","","Salmon Arm","BC","Canada","",""
7,"Antvorskovhallen","Sejrøvej 1","4200","Slagelse","","Denmark","",""
8,"Orange County Badminton Club","1432 North Main Street","92867","Orange","CA","U.S.A.","",""
9,"Ajax HS","105 Bayly Street East","L1S 1P2","Ajax","Ontario","Canada","905-429-0901","fabcoach@rogers.com"
10,"Wiener Stadthalle - Halle B","Vogelweidplatz 14","1150","Vienna","","Austria","",""
11,"Balboa Park Activity Center","2145 Park Blvd","92101","San Diego","CA","U.S.A.","",""
12,"Kelowna Badminton Club","1090 Richter Street","V1Y 2K5","Kelowna","BC","Canada","(250) 317-5715","pondsupplies@hotmail.com"
13,"Sharing Youth Centre","Nsambya Road","","Kampala","","Uganda","",""
14,"RWE-Sporthalle","An den Sportstätten 6","45468","Mülheim an der Ruhr","","Germany","",""
15,"NIA, Birmingham","","","Birmingham","","England","",""
16,"Brushy Creek Community Center","16318 Great Oaks Drive","78681","Round Rock","TX","U.S.A.","512 255 7871",""
17,"St. Jakobshalle","Brünglingerstrasse 21","4052","Basel","","Switzerland","",""
18,"Randolph Recreation Center","200 S. Randolph","","Tucson","Arizona","U.S.A.","",""
19,"Sport Hall","Suchowolca str.26","15-566","Bialystok","","Poland","48602480879","klub@ksbialystok.pl"
20,"Netsports","3717 Davis Drive","","Morrisville","NC","U.S.A.","",""
21,"Ajax High School","105 Bayly Street East","L1S 1P2","Ajax","Ontario","Canada","905-683-1610",""
22,"Elk Grove Pavilion","1000 Wellington","60007","Elk Grove","IL","U.S.A.","",""
23,"LABC - Los Angeles Badminton Club","10410 Valley Blvd.","91731","El Monte","CA","","","info@labadmintonclub.com"
24,"Interlake High School","16245 NE 24th St.","98008","Bellevue","WA","U.S.A.","425-456-7200",""
25,"Club Atwater","3505 Atwater Avenue","H3H 1Y2","Montreal","Quebec","Canada","514 935 2431",""
26,"San Gabriel Valley Badminton Club","9255 Telstar Ave","91731","El Monte","California","","",""
27,"MIT Rockwell Cage","Vassar Street","2139","Cambridge","MA","U.S.A.","",""
28,"OCBC","1432 N. Main St.","92867","Orange","CA","U.S.A.","",""
29,"Texins Activity Centers","13900 North Central Expressway","75243","Dallas","Texas","U.S.A.","214.567.3777","officers@texinsbadmintonclub.com"
30,"Singapore Indoor Stadium","2 Stadium Walk Singapore 397691","","Singapore","","Singapore","",""
31,"Istora","","","Jakarta","","Indonesia","",""
32,"John Bowne High School","63-25 Main St.","11367","Flushing","NY","U.S.A.","646-271-3228","info@nycbadminton.com"
33,"Bay Badminton Club","1611 Adrian Road","94010","Burlingame","CA","U.S.A.","",""
34,"Stadium Bandaraya Johor Bharu","Jalan Tebrau","","Johor Bharu","Johor","Malaysia","",""
35,"Wentworth Institute of Technology","550 Huntington Avenue","","Boston","MA","U.S.A.","",""
36,"Ryerson Kerr Hall Gym","379 Victoria St.","","Toronto","Ontario","Canada","","badmin@ryerson.ca"
37,"Woodlands Sports Hall","2 Woodlands Street 12","738620","Singapore","","Singapore","",""
38,"Orange County BC","1432 N. Main St","92867","Orange","CA","U.S.A.","1-714-6396222","OCBCmail@aol.com"
39,"Durham College","","","Oshawa","Ontario","Canada","",""
40,"Athletic Centre (U of T)","55 Harbord Street","","Toronto","Ontario","Canada","",""
41,"Manhattan Beach Badminton Club","516 - 18th Street","90266","Manhattan Beach","CA","U.S.A.","",""
42,"LABC","10410 Valley Blvd.","91731","El Monte","CA","","(626)279-9919","info@labadmintonclub.com"
43,"Athletic Centre (University of Toronto)","55 Harbord Street","","Toronto","Ontario","Canada","",""
44,"ZBTC","33540 Central Ave","94587","Union City (San Franscisco)","CA","U.S.A.","510-487-9282","widmeister@yahoo.com"
45,"Athletic Centre","55 Harbord Street","","Toronto","Ontario","Canada","",""
46,"Maverick Activities Center, University of Texas at Arlington","500 W. Nedderman Drive","76019","Arlington","Texas","U.S.A.","817-272-3277","deepak_kamath@yahoo.com"
47,"CP Badminton Club(CPBC)","20-24 119th Street","11356","College Point","New York","U.S.A.","347-368-4124","tournament@cpbadminton.com"
48,"Nicosia","","","Nicosia","","Cyprus","",""
49,"UCLA","220 Westwood Plaza","90095","Los Angeles","CA","U.S.A.","714.230.5105","bruinopen@gmail.com"
50,"KBC","1090 Richter Kelowna","","Kelowna","BC","Canada","",""
51,"Shula's Athletic Club","15150 Bull Run Road","33014","Miami Lakes","Florida","U.S.A.","","play@miamipanam.com"
52,"Fonde Recreation Center","110 Sabine St.","77007","Houston","TX","U.S.A.","713-226-4466","houstonbadmintonclub@gmail.com"
53,"TAS Secondary School","1009 Armour Road North","","Peterborough","","Canada","",""
54,"Kerr Hall Gymnasium","","","Toronto","Ontario","Canada","",""
55,"Marblehead High School","","","Marblehead","MA","U.S.A.","",""
56,"Centennial Secondary School and Bayside Secondary School","160 Palmer Road Belleville 1247 Old Highway 2 between Belleville and Trenton","","Belleville","","Canada","",""
57,"Bellevue badminton club","13405 se 30th street Suite 1c","98005","Bellevue","Wa","U.S.A.","425-562-2950",""
58,"Coliseo municipal Tabio - Cundinamarca","Coliseo Tabio - Cundinamarca","","Tabio","Cundinamarca","Colombia","",""
59,"Broadway Armory","5917 N. Broadway St.","60660","Chicago","IL","U.S.A.","",""
60,"Falconer Center","Falkoner Alle 9","2200","Frederiksberg","","Denmark","",""
61,"Shula's Hotel & Golf Club","6842 Main Street","","Miami Lakes","FL","U.S.A.","305-820-8100","adriana.torres@donshulahotel.com"
62,"TASS High School","1009 Armour Road North","K9J 7B1","Peterborough","","Canada","",""
63,"Ryerson Kerr Hall Gymnasium","379 Victoria Street","","Toronto","Ontario","Canada","",""
64,"Elro Arena","Viborgvej/Fyensgade 1","8900","Randers","","Denmark","",""
65,"Fraser Heights Secondary School","16060 108th Avenue","","Surrey","BC","Canada","",""
66,"California Badminton Academy","46049 Warm Springs Boulevard","94539","Fremont","CA","U.S.A.","",""
67,"Kingston Collegiate & Vocational Institute","235 Frontenac St","K7L 3S7","Kingston","Ontario","Canada","(613) 544-4811 ext. 349","saundersm@limestone.on.ca"
68,"P. E. Society’s Modern PDMBA Sports Complex,","Off Jangli Maharaj Road,","","Pune","Maharashtra","India","+91 (20) 25535799","girishnatu@badmintonindia.org"
69,"JOHN BOWNE HS gym","63-25 Main Street","11367","Flushing","NY","U.S.A.","646-271-3228","info@nycbadminton.com"
70,"University of Western Ontario","","","London","Ontario","Canada","",""
71,"Recreation & Athletic Centre","","","Toronto","ON","Canada","416-979-5096",""
72,"Parsippany PAL (Police Athletic League)","33 Baldwin Road","7054","Parsippany","NJ","U.S.A.","",""
73,"Affinity Badminton Club","403 Quarry Road","94070","San Carlos","CA","U.S.A.","",""
74,"Garrison Forest School","300 Garrison Forest Rd","21117","Owning Mills","MD","U.S.A.","",""
75,"MIT, Rockwell Cage","120 Vassar Street","2139","Cambridge","MA","U.S.A.","",""
76,"ESPN/WIDE WORLD OF SPORT","","","Orlando","Florida","U.S.A.","",""
77,"Los Angeles Badminton Clib","10410 Valley Blvd","92731","El Monte","CA","U.S.A.","(626) 279-9919","info@labadmintonclub.com"
78,"Niwot High School","8989 Niwot Road","80503","Longmont","Colorado","U.S.A.","",""
79,"Bintang Badminton SSF","245 South Spruce Ave, Suite 700","","South San Francisco","CA","U.S.A.","650-624-0002",""
80,"Phoenixville YMCA","400 E. Pothouse Rd Phoenixville, PA 19460","","Phoenixville","PA","U.S.A.","",""
81,"CP Badminton Club (CPBC)","20-24 119th Street","11356","College Point","NY","U.S.A.","347-368-4124",""
82,"Boston Badminton Club","169 Flanders Rd","1581","Westborough","MA","U.S.A.","508-329-1710","info@bostonbadminton.com"
83,"San Gabriel Valley Badminton Club II","3410 Pomona Blvd","91768","Pomona","CA","","",""
84,"Los Angeles Badminton Club (LABC)","10410 Valley Blvd.","91731","El Monte","CA","U.S.A.","626-279-9919",""
85,"George R. Brown Convention Center","1001 Avenida de las Americas","77010-6099","Houston","TX","U.S.A.","",""
86,"JOHN BOWNE HS GYM","63-25 Main Street","11367","Flushing","NY","U.S.A.","646-271-3228","info@nycbadminton.com"
87,"San Gabriel Valley Bamdinton Club II","3410 Pomona Blvd","Pomona","CA","","","",""
88,"Bay Badminton Center","1611 Adrian Road","94010","Burlingame","CA","U.S.A.","",""
89,"UMASS Boston","100 Morrissey Blvd.","2125","Boston","MA","U.S.A.","",""
90,"UGA - Ramsey Center","300 River Road","30602","Athens","GA","U.S.A.","",""
91,"Richmond Oval,","611 River Road, Richmond , BC, V7C 0A2","V7C 0A2","Richmond","British Columbia","Canada","778 296 - 1400","badminton@badminton.ca"
92,"Cheyenne Mountain High School","1200 Cresta Road","80906","Colorado Springs","Colorado","U.S.A.","",""
93,"TBD","","","Richmond","BC","Canada","",""
94,"WEMBLEY ARENA","Arena Square","","London","","England","441908268400","anitasherwood@badmintonengland.co.uk"
95,"Z Badminton Training Center","33540 Central Avenue","94587","Union City","CA","U.S.A.","510-487-9282","info@zbadmintontrainingcenter.com"
96,"The Jacob K. Javits Convention Center of New York","655 West 34th Street","10001","New York","NY","U.S.A.","",""
97,"UT Arlington - Maverick Center","500 W.Nedderman Drive","76019","Arlington","TX","U.S.A.","214-906-7340","paulnibu@gmail.com"
98,"CP Badminton Club","20-24 119th Street","11356","College Point","NY","U.S.A.","347-368-4124",""
99,"Hickory Grove Elementary School","6709 Pence Road","","Charlotte","NC","U.S.A.","",""
100,"Cambie Secondary School","4151 Jacombs Road","V6V 1N7","Richmond","BC","Canada","",""
101,"University of Rochester","Robert B. Goergen Athletic Center at the University of Rochester Library Road (off of Joseph C. Wilson Blvd)","14627","Rochester","New York","U.S.A.","",""
102,"SGVBC 1","9255 Telstar Avenue","","El Monte","CA","","",""
103,"University of Toronto","55 Harbord Street","","Toronto","Ontario","Canada","905-429-0901","fabcoach@rogers.com"
104,"Bellevue Badminton Club","13405 se 30th street","98005","Bellevue","Wa","U.S.A.","425-562-2950","bellvuebadminton@gmail.com"
105,"High Performance Center","","","Caldas da Rainha","","Portugal","",""
106,"Fetzer Gym B, Student Recreation Center, UNC-Chapel Hill","101 Student Recreation Center Fetzer Gym B, Student Recreation Center","27599","Chapel Hill","NC","U.S.A.","410-258-8109","h.boy.cup@gmail.com"
107,"Confucius Institute","112 Swan Hall 60 Upper College Road","2881","Kinston","RI","U.S.A.","401-874-4792","uricimail@gmail.com"
108,"Bombay Gymkhana","","","Mumbai","Maharashtra","India","",""
109,"Boson Badminton Center","169 Flanders Road","","Westborough","MA","U.S.A.","(508) 329-1710","zhipingyou@hotmail.com"
110,"Bryn Mawr College - Schwartz Gym","New Gulph Rd & N. Roberts Rd","19010","Bryn Mawr","PA","U.S.A.","",""
111,"Moncton Coliseum Complex","377 Killam Drive, Unit 100","E1C 3T1","Moncton","NB","Canada","",""
112,"Babu Banarasi Das Indoor Stadium","U.P. Badminton Academy, Vipin Khand, (Behind Hotel Taj), Gomti Nagar,","226010","Lucknow","","India","+91-522-2615924","girishnatu@badmintonindia.org"
113,"Falkonersalen","Falkoner Alle 9","2000","Frederiksberg","","Denmark","",""
114,"North Gym, University of Maryland","SPH (Building number 255)","","College Park","MD","U.S.A.","",""
115,"BBC","13405 SE 30th St Suite 1C","98005","Bellevue","WA","U.S.A.","425-562-2950","bellevuebadminton@hotmail.com"
116,"Bintang South San Francisco","245 South Spruce Ave","94080","South San Francisco","California","U.S.A.","",""
117,"Bintang Badminton Academy - South San Francisco","245 South Spruce Ave","94080","South San Francisco","Ca","U.S.A.","650-624-0002",""
118,"Iþróttahúsið við Vesturgötu","Vesturgötu 130","300","Akranes","","Iceland","",""
119,"SGVBC Pomona","3410 Pomona Blvd","91768","Pomona","CA","U.S.A.","",""
120,"Kingston Collegiate & V. I.","235 Frontenac St.","K7L 3S7","Kingston","ON","Canada","(613) 544-4811","saundersm@limestone.on.ca"
121,"Seattle Badminton Club","10858, 117th Place NE","98033","Kirkland","WA","U.S.A.","425-889-5958","katherine@seattlebadminton.com"
122,"Íþróttamiðstöðin Þorlákshöfn","Hafnarberg","815","Þorlákshöfn","","Iceland","483-3807",""
123,"San Gabriel Valley Badminton Club I","9255 Telstar Ave","91731","El Monte","CA","","626-307-4650",""
124,"University of Rochester Georgen Gymnasium","Library Road (off of Joseph C. Wilson Blvd)","14627","Rochester","New York","U.S.A.","",""
125,"National Indoor Arena","PO Box 3348 Birmingham B40 1NS","","Birmingham","","England","",""
126,"United Badminton Club","43901 Boscell Road","94538","Fremont","CA","U.S.A.","510-656-2582","unitedbadmintonclub@gmail.com"
127,"Emory University","","","Atlanta","GA","U.S.A.","",""
128,"San Gabriel Valley Badminton Club 1","9255 Telstar Ave","91731","El Monte","CA","","626-307-4650",""
129,"Fetzer Gym B, University of North Carolina, Chapel Hill","Student Recreation Center 101 Student Recreation Center","27599","Chapel Hill","NC","U.S.A.","","southernopen2012@gmail.com"
130,"Rishon Le Zion Sport hall","herzel 123","","Rishon Le Zion","","Israel","","isra_bad@walla.com"
131,"Indian Club Bahrain","","","Manama","","Bahrain","9733007600","bbsf2006@hotmail.com"
132,"SPORT PAIS HALL","SHOHAM 1","","NEVE MONOSON","","Israel","054-7565636","RMOZS@WALLA.COM"
133,"Coral Reef Senior High School","10101 S.W. 152 Street","","Miami","Florida","U.S.A.","",""
134,"Orange County Badminton CLub","1432 North Main Street","92867","Orange","CA","U.S.A.","",""
135,"אולם הספורט מקיף ה","רח' הפרחים","","אשדוד","","Israel","",""
136,"University of Central Oklahoma- Wellness Center","100 N. University Drive","73034","Edmond","Oklahoma","U.S.A.","+1(405)474-9618","wldarren@gmail.com"
137,"Siri Fort Indoor Stadium","Siri Fort Complex, Siri Fort Road","","New Delhi","","India","+91 87502 03777","puritej@yahoo.co.in"
138,"Rockwell Cage, MIT","120 Vassar Street","2139","Cambridge","MA","U.S.A.","",""
139,"University of Arizona Student Recreation Center","1400 E 6TH ST","85721","Tucson","AZ","U.S.A.","520-626-3396",""
140,"hamoshava sport hall","","","zichron yakov","","Israel","",""
141,"Bay Badminton Training Academy","1611 Adrian Rd.","94010","Burlingame","CA","U.S.A.","(650) 692 - 1611","info@baybadminton.com"
142,"Texins - Texas Instruments","13900 North Central Expressway","75243","Dallas","TX","U.S.A.","214.567.3777",""
143,"Male Sports Complex","","","Male","","Maldives","",""
144,"Badminton Center Court","3699 Industry Avenue","90712","Lakewood","California","U.S.A.","15624269299","tranining@thecentercourt.com"
145,"LUGOGO INDOOR STADIUM","LUGOGO - KAMPALA","256","KAMPALA","","Uganda","+256 772 411 724","Ncsuga@infocon.co.ug"
146,"Auckland Badminton Stadium","99 Gillies Avenue Epsom","","Auckland","","New Zealand","6495440872","jack@auckbad.co.nz"
147,"Boston Badminton Center","169 Flanders Road","","Westborough","MA","U.S.A.","(508) 329-1710","info@bostonbadminton.com"
148,"International Badminton Center","3775 Park Ave","8820","Edison","NJ","U.S.A.","917-626-8946","info@ibcusa.org"
149,"","4651 Britt Road Lucky Shoals Park","30093","Norcross","GA","U.S.A.","678.277.0860",""
150,"Richmond Olympic Oval","611 River Road, Richmond , BC","V7C 0A2","Richmond","","Canada","",""
151,"Ryerson University","379 Victoria Street","","Toronto","Ontario","Canada","","ryersonopen@gmail.com"
152,"Robinson S.S. Gym","5035 Sideburn Road","22032","Fairfax","VA","U.S.A.","",""
153,"SGVBC II POMONA","3410 Pomona Blvd.","91768","Pomona","CA","","(909) 8391939",""
154,"Millennium Place","2000 Premier Way","T8H 2G4","Sherwood Park","AB","Canada","780.464-8244",""
155,"Phan Dinh Phung Stadium","8 Vo Van Tan Street, District3,","","Ho Chih Minh","","Vietnam","+848 - 38208773","hcmba@vnn.vn"
156,"LBCC Main Gym","4901 East Carson Street","90808","Long Beach","CA","U.S.A.","",""
157,"Community Centre ""Wzgorze Zamkowe""","Norwida Street 10","59-300","Lubin","","Poland","",""
158,"Polideportivo Las Delicias Gimnasio Mauricio Johnson","Av. Las Delicias Estado Aragua","2101","Maracay","","Venezuela","5804262202036 - 5804127165265 - 5804241679690","volante.raqueta.red@gmail.com"
159,"Maverick Activities Center - UTA","500 W Nedderman St","76013","Arlington","Texas","U.S.A.","817-272-3277",""
160,"P. E. Society’s Modern PDMBA Sports Complex","Modern High School Premises","411005","PUNE","MAHARASHTRA","India","+91 20 25535799",""
161,"Sportova hala PU Presov","Sportova 10","080 01","Presov","","Slovakia","",""
162,"San Gabriel Valley Badminton 2","3410 Pomona Blvd","91768","Pomona","CA","","909-939-1939",""
163,"Olympic Sports Center Xincheng Gymnasium","NO.1 Jinling North Road","","Changzhou","","China","",""
164,"Sportoase","Philipssite Leuven 6","3000","Leuven","","Belgium","","bart@badmintonvlaanderen.be"
165,"Bond Park Community Center","","","Cary","NC","U.S.A.","",""
166,"NJ Badminton Club","2 Changebridge Rd., East Bldg, Units JKL","7045","Montville","NJ","U.S.A.","201-572-4993","Wallace.Lee@njbadminton.com"
167,"Tokyo Yoyogi Gymnasium","2-1-1 Jin'nan, Shibuya-ku 150-0041","","Tokyo","","Japan","",""
168,"Gimnasio Polideportivo CENARD","Crisologo Larralde 1050","","Capital Federal","Buenos Aires","Argentina","",""
169,"Sport Palace Lokomotiv","Kotlova st. 90","61052","Kharkov","","Ukraine","+380 57724 0990","circuit@badmintoneurope.com"
170,"Salle ""La Préalle""","Reu Emile Muraille 158","4040","Herstal","Liège","Belgium","++32 4 368 63 09","belgianjunior@lfbb.be"
171,"GOR P.S.C.C","Jl. POM IX no. 1","","Palembang","","Indonesia","",""
172,"Club Athlético Paulistano","Rua Colombia 77","","São Paulo","São Paulo","Brazil","",""
173,"City Sports Hall Vodova","Vodova 108","612 00","Brno","","Czech Republic","","circuit@badmintoneurope.com"
174,"Richmond Pro Badminton Centre","Unit 130 - 5800 Minoru Boulevard","","Richmond","British Columbia","Canada","",""
175,"Centre de badminton","Viaduc 12","1008","Prilly","Vaud","Switzerland","+41 21 6242221","info@cak-sport.ch"
176,"Hsing Chuang Gymnasium","No. 70, Chung Hwa Road, Hsingchuang","","New Taipei City","","Chinese Taipei","",""
177,"Sofia Hall - Borisova Garden","Borisova Garden","1040","Sofia","","Bulgaria","","circuit@badmintoneurope.com"
178,"Topsportcentrum Almere,","","","Almere","","Netherlands","+31 525683184",""
179,"Dongguan Badminton School","Shuilian Road","","Dongguan","Guangdong","China","8676923668889","lybibsofficial@sina.cn"
180,"Gentofte Badminton Klub","Ved Stadion 4","DK-2820","Gentofte","","Denmark","+45 3965 0400","gbk@gbk.dk"
181,"Arat Kilo Sports & Education Centre","","","Addis Ababa","","Ethiopia","",""
182,"Baldoyle Badminton Centre","Grange Road","","Dublin 13","","Ireland","","circuit@badmintoneurope.com"
183,"vasil levski","","","Pazardhzik","","Bulgaria","",""
184,"אולם ספורט אבני חושן","אולם ספורט אבני חושן 31.982371,34.773054","","RISHON LE ZION","","Israel","",""
185,"Centre Sportive Salle Omnisport des Isles","avenue des trois lacs 1","1400","Yverdon-les-Bains","","Switzerland","","circuit@badmintoneurope.com"
186,"STADE PIERRE DE COUBERTIN","82, AVENUE GEORGES LAFONT","75016","Paris","","France","",""
187,"Cambie Secondary","4151 Jacombs Road","","Richmond","BC","Canada","",""
188,"Arcadia Badminton Club","12336 Lower Azusa Rd.","91006","Arcadia","CA","","",""
189,"Goergen Athletic Center","Library Road","14627","Rochester","NY","U.S.A.","",""
190,"Saarlandhalle","","","Saarbrucken","Germany","Germany","",""
191,"Shula´s Athletic Badminton Club","Miami Lakes","","Miami Lakes","","U.S.A.","1-954-324 7155","play@flabadminton.org"
192,"Budaörs Sportshall","Hársfa u. 6","2040","Budaörs","","Hungary","","circuit@badmintoneurope.com"
193,"TBR - Badminton Hall","Gnodavogi 1","104","Reykjavik","","Iceland","+354 581 2266","circuit@badmintoneurope.com"
194,"Yuan Shen Gymanisum","No888, Taolin Road ,","","Shanghai","","China","",""
195,"City Sporthall Orlová","Masarykova 1313","735 14","Orlová - Lutyně","","Czech Republic","+ 420 596 511 102",""
196,"Hong Kong Coliseum","9 Cheong Wan Road ,","","Hong Kong","","Hong Kong","",""
197,"Emirates Arena","1000 London Road","G40 3HY","Glasgow","","Scotland","","circuit@badmintoneurope.com"
198,"Macau Forum","","","Macau","","Macau","",""
199,"Sport Wales National Centre","Sophia Gardens","CF11 9SW","Cardiff","","Wales","","circuit@badmintoneurope.com"
200,"Badminton Center Court Inc.","3699 Industry Avenue","90712","Lakewood","California","U.S.A.","562-426-9299","training@thecentercourt.com"
201,"AVNY HA HOSHEN SPORT HALL","אולם ספורט אבני חושן","","RISHON LE ZION","","Israel","",""
202,"LEE YONG DAE Stadium","512-1 Daeri Hwasun -eup,","","Hwasun - gun,","","Korea","",""
203,"Hwasun Indoor Stadium","512-1 Daeri","","Jeonnam","","Korea","8224226173","badmin98@chol.com"
204,"Indain Club","","","Manama","Bahrain","Bahrain","97333007600","bbsf2006@hotmail.com"
205,"MTN Arena","Lugogo Sports Ground","","Kampala","","Uganda","",""
206,"Shenzhen Bay","ShenZhen","","Shenzhen","Guangdong","China","",""
207,"Cricket Club of India (Mumbai)","Brabourne Stadium Dinshaw Vachha Road Churchgate","400020","Mumbai","","India","919822084688","indiaic@badmintonindia.org"
208,"Falconer Salen","Falkoner Alle 9","2000","København","Danmark","Denmark","+45 38 15 80 01",""
209,"SK Handball Stadium (Olympic Gymnasium 2)","88-2 Bangi-dong","","Seoul","","Korea","+82 2 410 1683",""
210,"Tallin City","Sports Hall Kalev 12 Juhkentali Street","","Tallinn","","Estonia","",""
211,"School of Public Health UMD","University of Maryland, College Park Maryland, 20742","","College Park","MD","U.S.A.","","badterpsminton@gmail.com"
212,"Eriksdalshallen","Ringvägen 70","SE-118 61","Stockholm","","Sweden","",""
213,"‘’Evangelos Florakis’’ Sports Hall","Makarios Sport Centre Av. Engomi","2400","Nicosia","","Cyprus","",""
214,"Arcadia Badminton Court","12336 Lower Azusa","","Arcadia","CA","","",""
215,"Los Angeles Badminton Club","10410 Valley Boulevard","91731","El Monte","CA","U.S.A.","",""
216,"Arcadia Badminton Clun","12336 Lower Azusa Rd","","Arcadia","California","","",""
217,"Wiener Stadthalle","Vogelweidplatz 14","1150","Wien","","Austria","+43 6502843434",""
218,"Lugogo Indoor Stadium","National Council of Sports P.O. Box 20077","","Kampala","","Uganda","+256 (414) 254 477",""
219,"RWE - Sporthalle","An den Sportstätten 6","45468","Mülheim an der Ruhr","","Germany","",""
220,"The National Indoor Arena","King Edward's Road","B1 2AA","Birmingham","","England","",""
221,"LOS ANGELES BADMINTON CLUB (LABC)","10410 Valley Blvd","91731","El Monte","CA","","626-279-9919","labadminton@gmail.com"
222,"City Sports Hall","123 Hertzel St.","","Rishon Le Zion","","Israel","",""
223,"Banu Sport - Sports Hall","33 Ripensia Street","300585","Timisoara","","Romania","+40 256 220 642","secr.gen@badminton.ro"
224,"Singapore Badminton Hall","No. 1 Lorong 23 Geylang","388352","Singapore","Singapore","Singapore","",""
225,"Sport hal 'Arena Ursynow'","Pileckiego Street 122","00-195","Warsaw","","Poland","","sekretariat@pzbad.pl"
226,"Hanoi Stadium","No. 12 Trinh Hoai Duc Str, Dong Da Dis","","Hanoi","","Vietnam","+84 4 37185346","hanoiba_vn@yahoo.com.vn"
227,"Palais des sports","rue Eugene vignat","45000","Orléans","","France","",""
228,"Sydney Convention & Exhibition Centre","Darling Harbour","","Sydney","NSW","Australia","",""
229,"Energia Areena","Rajatorpantie 23","FIN-01600","Vantaa","","Finland","+358 10 633 0303","finnish.open@badminton.fi"
230,"University of Central Oklahoma - Wellness Center","100 N. University Drive","73034","Edmond","Oklahoma","U.S.A.","",""
231,"NERRC","7501 Oakleigh Rd","","Parkville, MD 21234","","U.S.A.","443-857-4744","shingles@jhu.edu"
232,"Coliseo Manuel Bonilla","Miraflores, Lima - Perú","","Lima","","Peru","+ (51) 988 895 843","badmintonperu@gmail.com"
233,"Dom Sportova","Trg Kresimira Cosica 11","10000","Zagreb","","Croatia","+385 1 3650 333",""
234,"Taipei Arena","No 2 Sec 4","","Taipei","","Chinese Taipei","+886 2 25783536","chntpe.ba@msa.hinet.net"
235,"VELO-hal","Noordweg 26","","Wateringen","","Netherlands","","yonexdutchinternational@badminton.nl"
236,"Badminton Center Court (BCC)","3699 Industry Avenue $25 for 1 event; $45 for 2 events $55 for 3 events","90712","Lakewood","California","U.S.A.","562-426-9299","andytran1011@yahoo.com"
237,"Kingston CVI","235 Frontenac St.","","Kingston","Ontario","Canada","(613) 544-4811 ext. 349","saundersm@limestone.on.ca"
238,"San Gabriel Valley Badminton Club #2","3410 Pomona Blvd","91768","Pomona","CA","","626-307-4650","sgvbctournament@yahoo.com"
239,"Arena Nord","Rimmens Allé 37","9900","Frederikshavn","","Denmark","",""
240,"Sport Hall Medvode","Ostrovrharjeva 4","1215","Medvode","","Slovenia","","matevz.srekl@gmail.com"
241,"loutraki Indoor Hall","Athinon Avenue","20300","Loutraki","","Greece","+30 210 6800046","info@badminton.gr"
242,"Estero Community Park","Recreation Center 9200 Corkscrew Palms Blvd","33928","Ft Myers","Florida","","",""
243,"CLUB DE REGATAS LIMA SEDE VILLA","","","LIMA","","Peru","",""
244,"Polideportivo Municipal ""Marques de Samaranch""","Paseo Imperial 18","28005","Madrid","","Spain","","internacional@badminton.es"
245,"Ginásio Hotel Bourbon","Avenida da Cataratas 2.500","","Iguazu","","Brazil","+55 19 3579 49 36",""
246,"Nimibutr Stadium","Rama I Road, Pathumwan","","Bangkok,","","Thailand","",""
247,"Kaunas Sports HAll","Perkuno al. 5","","Kaunas","","Lithuania","","ylo2013@badminton.lt"
248,"ISTORA GELORA BUNG KARNO STADIUM","Senayan","10270","Jakarta","","Indonesia","+62 21 5734070",""
249,"Richmond Pro","Unit 130 - 5800 Minoru Blvd.","V6X 2A9","Richmond","BC","Canada","604-231-0999","wcbf.vancouver@gmail.com"
250,"LUGOGO","KAMPALA","","KAMPALA","","Uganda","",""
251,"Singapore Indoor Stadium (SIS)","2 Stadium Walk","397691","Singapore","","Singapore","",""
252,"Reverchon Recreation Center","3505 Maple Avenue","75219","Dallas","Texas","U.S.A.","214-670-7721",""
253,"San Gabriel Valley Badminton Club II: Pomona","3410 Pomona Blvd","91768","Pomona","California","","(626) 307-4650",""
254,"Alumni Hall, Carelton University","Alumni Hall, Carelton University, Ottawa, Ontario","","Ottawa","Ontario","Canada","+1 613 569 2424",""
255,"JOHN BOWNE H.S. GYM","63-25 MAIN STREET","11367","FLUSHING","NY","U.S.A.","646-271-3228","INFO@NYCBADMINTON.COM"
256,"Bintang Badminton South Francisco","245 South Spruce Avenue Suite 170","94080","South San Francisco","CA","U.S.A.","",""
257,"Sports Hall ""Arena""","Generala Knysha Street 14A","","Gatchina","St-Petersburg region","Russia","","alex_russkich@hotmail.com"
258,"Polideportivo","Mar del Plata s/n","7203","Rauch","Buenos Aires","Argentina","",""
259,"Orange County Badminton Club,","1432 N. Main St.","92867","Orange","CA","U.S.A.","+1.714.639.6222",""
260,"Likas Indoor Stadium","Jalan Kompkes Sukan Likas","88400","Kota Kinabalu","Sabah","Malaysia","60320939220","admin@bam.org.my"
261,"Salle Anewy","Valle Du Tir","","Noumea","","New Caledonia","",""
262,"Valley Forge Baptist Temple","616 S. Trappe Rd (off Black Rock Rd)","19460","Collegeville","PA","U.S.A.","","vfb@usbadminton.net"
263,"Richmond Olympic Oval,","","","Richmond","British Columbia","Canada","",""
264,"Cleveland Convention Center","500 LAKESIDE AVENUE E","44114","Cleveland","Ohio","U.S.A.","",""
265,"City Auditorium","221 East Kiowa St","80903","Colorado Springs","Colorado","U.S.A.","",""
266,"Sports Gymnasium","55 Harbord Street","","Toronto","Ontario","Canada","",""
267,"California Badminton Academy (CBA)","46049 Warm Springs Blvd","94539","Fremont","CA","U.S.A.","",""
268,"Polideportivo Las Delicias, Gimnasio Mauricio Johnson","Av. Las Delicias, Maracay, Estado de Aragua - Venezuela","","Maracay","Aragua","Venezuela","+ 58 - 4262202036, 4127165265, 4164254733","volante.raqueta.red@gmail.com"
269,"KAMPALA CLUB","KAMPALA","256","KAMPALA","","Uganda","",""
270,"SC"" Meteor""","Makarova str., 27A","49047","Dnipropetrovsk","","Ukraine","","sergiob62@mail.ru"
271,"Športová hala PU Prešov","Športova 10","080 01","Presov","","Slovakia","","sekretar@bedminton.sk"
272,"Mavericks Activity Center - University of Texas @ Arlington","500 W. Nedderman Drive","76013","Arlington","Texas","U.S.A.","",""
273,"ClearOne Badminton Centre - Orlando","4141 North John Young Parkway","32804","Orlando","FL","U.S.A.","407-730-3596","orlando@clearonebadminton.com"
274,"P. E. Society's Modern PDMBA Sports Complex","Modern High School Premises","411005","Pune","Pune","India","912025535799","girishnatu@badmintonindia.org"
275,"Coliseo Deportivo","Ciudad de los Deportes zona 4","","Guatemala","","Guatemala","(00) 502-2332-0131","badmintonguate@gmail.com"
276,"Pedrín Zorrilla Coliseum","","","San Juan","","Puerto Rico","",""
277,"Kaunas Sporthalle","Perkūno al. 5","","Kaunas","","Lithuania","",""
278,"Parque Miranda ""GIMNASIO PAPA CARRILLO""","Av. Principal de los Dos Camino.","","Municipio Sucre","Estado Miranda","Venezuela","04262202036 - 04127165265","volante.raqueta.red@gmail.com"
279,"Tokyo Metropolitan Gymansium","","","Tokyo","","Japan","",""
280,"Wzgorze Zamkowe","Pruzi Street 7","59-300","Lubin","","Poland","",""
281,"Sports Hall OLYMPIC","Batareinaya str","","Vladivostok","","Russia","",""
282,"GOR Amongraga","Jl. Kenari 1","","Yogyakarta","","Indonesia","",""
283,"The Copper Box Arena","Queen Elizabeth Olympic Park Stratford","E20 3HB","London","","England","",""
284,"Sofia Hall","Dstr. ""Borisova Garden""","","Sofia","","Bulgaria","","badmintonbg@gmail.com"
285,"Sporthall ""Intersport""","","","Porec","","Croatia","",""
286,"Robert B. Goergen Athletic Center","","","Rochester","New York","U.S.A.","585-275-7643",""
287,"Topsportcentrum Almere","","","Almere","","Netherlands","",""
288,"Bintang SSF","245 S Spruce Avevue, #700","94080","South San Francisco","CA","U.S.A.","650-624-0002","tournament@bintangbadminton.org"
289,"NC State University","Carmichael Gymnasium 2611 Cates Avenue","","Raleigh","North Carolina","U.S.A.","",""
290,"NJ Badminton Club (NJBC)","2 Changebridge Rd. Units JKL","7045","Montville","NJ","U.S.A.","201-572-4993","wallace.lee@njbadminton.com"
291,"Odense Sports Park","Hoejstrupvej 5 5200 Bolbro,","","Odense V","","Denmark","",""
292,"Centre Sportif","Avenue des trois lacs 1","1400","Yverdon-les-Bains","","Switzerland","",""
293,"MTN ARENA","LUGOGO INDOOR STADIUM","256","KAMPALA","","Uganda","772 411724","smugabi@hotmail.com"
294,"Kibbutz Hatzor Sport Hall","Kibbutz Hatzor","60970","Israel","","Israel","","bchatzor@gmail.com"
295,"Eastbay Badminton Association","4230 Hubbard Street","94608","Emeryville","CA","U.S.A.","(510)655-8989","ebaopen@gmail.com"
296,"Palmer Ridge High School","19255 Monument Hill Road","80132","Monument","CO","U.S.A.","",""
297,"Palacio de los Deportes Virgilio Travieso Soto","Distrito Nacional","","Santo Domingo","","Dominican Republic","",""
298,"SAARLANDHALLE","SAARBRÜCKEN","","Saarbrucken","","Germany","",""
299,"The Indian Club","","","Manama","","Bahrain","97336500103","bis.2013@ymail.com"
300,"Bahrain Keraleeya","Samajam DJ Hall Segayya","","Bahrain","","Bahrain","97313699944","ashley.bbsf@yahoo.com"
301,"Jeonju indoor Badminton Court","1st street, dukjin-gu Jeollabukdo, Korea","","Jeonju city","","Korea","",""
302,"Sport Hall Dubnica nad Váhom","Športovcov 655","018 41","Dubnica nad Váhom","","Slovakia","",""
303,"Vancouver Racquets Club","4867 Ontario Street","","Vancouver","BC","Canada","604-992-1070","calvinholoboff@gmail.com"
304,"Jeonju Indoor Badminton Court","1st Street dukjin-gu","","Jeonju","","Korea","82632392573","koreagp2013@hanmail.net"
305,"Ryerson Kerr Hall Upper Gym","379 Victoria Street","","Toronto","Ontario","Canada","","badmin@ryerson.ca"
306,"Emirates Arena,","1000 London Road Glasgow G40 3HY","","Glasgow","","Scotland","",""
307,"Otahalli","Otaranta 6","2150","Espoo","","Finland","010 2712600",""
308,"Kimberton Badminton Club","KImberton Waldorf School 410 W. 7 Stars Rd.","","Kimberton","PA","U.S.A.","",""
309,"Wunna Theikdi Indoor Stadium","","","Nay Pyi Taw","","Myanmar","",""
310,"PALAFIJLKAM","Via della Stazione di Castel Fusano Lido di Ostia","122","Rome","","Italy","","elianapassaniti@badmintonitalia.it"
311,"Stadium Badminton Kuala Lumpur","3 1 / 2 Mile Jalan Cheras,","56000","Kuala lumpur","","Malaysia","",""
312,"Cricket Club of India, Mumbai","Brabourne Stadium Dinshaw Vachha Road Churchgate","400020","Mumbai","","India","","girishnatu@badmintonindia.org"
313,"Siri Fort Sports Complex","Siri Fort","","New Delhi","New Delhii","India","",""
314,"Khalifa Sports City","Isa Town","","Isa Town","","Bahrain","97313699944","ashley.bbsf@yahoo.com"
315,"Fatih Sport Kompleksi","Karagumruk Mah. Kaleboyu Cad. No:111 Fatih","","Istanbul","","Turkiye","","tbfed@mynet.com"
316,"Synergy Badminton Club","190 Constitutional Dr.","94025","Menlo Park","CA","U.S.A.","650.838.9318",""
317,"Sports Hall Kalev","12 Juhkentali Street 6","","Tallinn","","Estonia","","ei2014@badminton.ee"
318,"Thomas A Stewart Secondary School/Kenner Collegiate Vocational Institute","1009 Armour Road/633 Monaghan Road","","Peterborough","Ontario","Canada","",""
319,"Fyrishov","Idrottsgatan 2","753 33","Uppsala","","Sweden","","info@swedishmasters.com"
320,"School of Public Health","University of Maryland","20740","College Park","MD","U.S.A.","","feartheterpsminton@gmail.com"
321,"Midwest Badminton Club","2019 Corporate Lane Suite 103","60563","Naperville","Illinois","U.S.A.","630-364-2345","heatherp@mbadminton.com"
322,"U.C. Berkeley Recreational Sports Facility","2301 Bancroft Way","94720","Berkeley","CA","U.S.A.","",""
323,"TBR – Badminton Hall","Gnoðavogi 1","104","Reykjavik","","Iceland","","bsi@badminton.is"
324,"Ryerson University, KHW gym","39 Gerrard St. E.","","Toronto","Ontario","Canada","","badmin@ryerson.ca"
325,"Agile Gymnasium Culture and Sports Square","Binhe South Road, Linghsui","","Hainan","","China","861087183487","bdchnoffice@vip.163.com"
326,"Gimnasio Parque Central","Sarmiento 357, Neuquen – Neuquen","","Neuquen","","Argentina","",""
327,"Iran Badminton Federation Sport Hall","No 12 Hejab Ave., Keshavarz Blvd., Sport Hall of Iran Badminton Federation","","Tehran","","Iran","982188984439","Bad.iranfed@yahoo.com"
328,"Shannon Pohl Badiminton Academy","Adversity Volleyball Center 710 Corporate Woods Pkwy.","60061","Vernon Hills","IL","U.S.A.","847-722-8857","badminton@shannonpohl.com"
329,"CLUB DE REGATAS LIMA","FILIAL VILLA DEPORTIVA","","Lima","","Peru","",""
330,"Taipei Gymnasium","No 10 Sec. 4","10553","Taipei","","Chinese Taipei","886287711440","chntpe.ba@msa.hinet.net"
331,"Schwartz Gym","","","Bryn Mawr","PA","U.S.A.","","macjrs14@usbadminton.net"
332,"Duinwijckhal","Badmintonpad 1","2023BT","Haarlem","","Netherlands","+31 (0) 23-5333357",""
333,"High Performance Center for Badminton","Av. Vasco da Gama","","Caldas da Rainha","","Portugal","","events@fpbadminton.pt"
334,"Singapore Badminton Association","No. 1 Lorong 23 Geylang","388352","Singapore","Singapore","Singapore","67444111",""
335,"University of Arizona Student Recereation Center","1400 E. 6th Street","8571","Tucson","AZ","U.S.A.","",""
336,"Arena Ursynow","Pileckiego Street 122","00-195","Warsaw","","Poland","",""
337,"Ciudad Deportiva” Sport Hall, La Havana City","","","Havana","La Habana","Cuba","",""
338,"PALABADMINTON","Via Giovanni Cimabue, 24","20148","Milan","","Italy","",""
339,"San Gabriel Valley Badminton Club 2","3410 Pomona Blvd","91768","Pomona","CA","","909-839-1939","sgvbctournament@yahoo.com"
340,"Siri Fort Indoor Stadium,","Siri Fort Complex,","","New Delhi","","India","",""
341,"Moriguchi City Gymnasium","9 - 2 Kawara-machi Moriguchi-shi","570-0038","Osaka","","Japan","81669928201","jpnbad@badminton.or.jp"
342,"Canto del Sol","Puerto Vallarta","","Puerto Vallarata","","Mexico","",""
343,"MANUEL BONILLA","AV. Ejercito cdra 14 s/n Miraflores","","Lima","","Peru","",""
344,"Sport Center Lucko","Jezdovecka 3b","10 250","Zagreb","","Croatia","",""
345,"Stadium Sultan Abdul Halim","Jalan Suka Menanti","","Alor Setar","Kedah Darul Aman","Malaysia","",""
346,"North Shore Events Centre","Silverfield Lane, Wairau Valley North Shore,","","Auckland","","New Zealand","",""
347,"Egret Badminton Center, 1251 Basswood Rd, Schaumburg, IL 60173","1251 Basswood Rd.","60173","Schaumburg","IL","U.S.A.","847-285-5788",""
348,"Gimcheon Indoor Stadium","#488-1 Samrak Dong","","Gimcheon","Gyeongbuk","Korea","8224226173","badmin98@chol.com"
349,"GOR Sudirman","GOR Suryanaga GOR Amerta","","Surabaya","East Java","Indonesia","",""
350,"Nogales High School","","","West Covina","CA","","",""
351,"Riga Sport Manege","Maskavas Street 160","LV-1003","Riga","","Latvia","",""
352,"Sport Hall medvode","Ostrovrharjeva 4","1215","Medvode","","Slovenia","",""
353,"Massachusetts Institute of Technology (MIT)","Rockwell Gymnasium 106 Vassar Street","2139","Cambridge","MA","U.S.A.","",""
354,"Sidirokastro Indoor Hall","Dekou st. 4","","Sidirokastro","","Greece","",""
355,"Pabellon Municipal Marques De Samaranch","Paseo Imperial 18","28005","Madrid","","Spain","",""
356,"Sugathadasa Indoor Sports Complex","Arthur De Silva Mawatha","13","Colombo","Colombo","Sri Lanka","94112686264","slbahq@sltnet.lk"
357,"SEB Arena","Azuolyno st. 7","LT-07196","Vilnius","","Lithuania","",""
358,"Tokyo Metropolitan Gymnasium","","","Tokyo","","Japan","",""
359,"Gimnasio Campus Universitario","Paraje Arroyo Seco s/n, Tandil –Buenos Aires","","Tandil","Buenos Aires","Argentina","",""
360,"Bintang Milpitas","746 S. Milpitas Blvd.","95035","Milpitas","CA","U.S.A.","(408) 934-9915",""
361,"Suffolk County Community College","Grant Campus Crooked Hill Road","","Brentwood","NY","U.S.A.","",""
362,"Sheikh Khalifa Sports City","","","Isa Town","","Bahrain","97313699944","ashley.bbsf@yahoo.com"
363,"Istora Gelora BBung Karno Stadium","","","Jakarta","","Indonesia","+62 21 5734070",""
364,"Parque Miranda ""Papa Carrillo”","Dos Caminos-Caracas","","Caracas","","Venezuela","",""
365,"Champions FieldHouse","30 Southlawn Ct","","Rockville","Maryland","U.S.A.","",""
366,"States Sports Centre","","","Sydney","","Australia","",""
367,"Boston Badminton","169 Flanders Road","1581","Westborough","MA","U.S.A.","508-329-1710","info@bostonbadminton.com"
368,"UBC Thunderbird Arena - Vancouver Campus","2555 Wesbrook Mall","","Vancouver","British Columbia","Canada","",""
369,"Sports Hall Arena","Generala Knysha Street 14 A St-Petersburg Region","","Gatchina","","Russia","",""
370,"Suffolk County Community College, Health Sports and Education Center","Grant Campus Crooked Hill road Brentwood,","NY 11717","New York","","U.S.A.","(631)-851-6700","entries@usopengpg.com"
371,"George Brown Convention Center","","","Houston","Texas","U.S.A.","",""
372,"UTN AVELLANEDA","","","Avellaneda","BUENOS AIRES","Argentina","",""
373,"Sport Hall TBD","","","Vladivostok","","Russia","",""
374,"Polideportivo Vista Alegre","","","Córdoba","","Spain","",""
375,"MIDWEST BADMINTON CLUB Naperville","2019 Corporate Lane Suite 103","60563","Naperville","Illinois","U.S.A.","630-364-2345","heatherp@mbadminton.com"
376,"Northside Aztlan Community Center","112 E. Willow Street","80524","Fort Collins","CO","U.S.A.","970.221.6256","fcbc.public@gmail.com"
377,"SGVBC 2","","","Pomona","California","U.S.A.","951-313-7226",""
378,"Ballerup Super Arena","Ballerup,","","Copenhagen","","Denmark","",""
379,"Sudirman Badminton Hall","Jl. Kertajaya Indah Timur","","Surabaya","","Indonesia","62218445078","pbsi_secgen@cbn.net.id"
380,"Champion's Fieldhouse","30 Southlawn Court","20850","Rockville","Maryland","U.S.A.","",""
381,"Tan Binh Sports Center","448 Hoang Van Thu Street, Tan Binh District","","Hochiminh City","","Vietnam","",""
382,"SG1","9255 TELSTAR AVE","91731","EL MONTE","CA","","",""
383,"Gyeyang Gymnasium","","","Incheon","Incheon","Korea","",""
384,"Midwest Badminton Club - Naperville","2019 Corporate Lane Suite 103","60563","Naperville","Illinois","U.S.A.","630-364-2345","chicagoopen@mbadminton.com"
385,"Smashville","381 W. High St. In back of Sunoco","19464","Pottstown","PA","U.S.A.","610-999-5960","TD14@smashville.us"
386,"AV. República de Chile # 254 – Jesús María","","","Lima","Lima","Peru","",""
387,"Tien Son Sports Complex","No 1A, Phan Dang Luu Street","","Danang","","Vietnam","845113626286","tuonglan1972@gmail.com"
388,"Badminton NC","9300 Globe Center Drive Suite 116","27560","Morrisville","NC","U.S.A.","9193161739","lisa@badmintonnc.com"
389,"Stade Pierre de Coubertin","82, Avenue Geoges Lafont","75016","Paris","","France","",""
390,"ClearOne Orlando","4141 N John Young Parkway","32804","Orlando","Florida","U.S.A.","407-730-3596","orlando@clearonebadminton.com"
391,"Papillion La Vista High School","305 East Cary Street","68046","Papillion","NE","U.S.A.","402-571-6933","shuttle@inebraska.com"
392,"Las Vegas Badminton Club","3655 W Sunset Rd, STE D","89118","Las Vegas","Nevada","U.S.A.","",""
393,"Cantro de Alto Rendimientto","","","Tijuana","Baja California","Mexico","",""
394,"Fonde Recreational Center","110 Sabine St.","77007","Houston","TX","U.S.A.","713 266 4466","tournament@houstonbadmintonclub.org"
395,"Gimnasio Escuela 2","Avenida Argentina y Provincia de San Juan","8300","Neuquen","Neuquen","Argentina","",""
396,"1251 Basswood Rd","","60173","Schaumburg","IL","U.S.A.","847-285-5788",""
397,"Haixia Olympic Sport Center","Jianxin Nan, Cangshan District","","Fuzhou","","China","",""
398,"SG2","3410 Pomona Blvd.","91768","Pomona","CA","","",""
399,"Badminton Centrum","Basamalom utca 33.","7630","Pécs","","Hungary","",""
400,"Singapore Sports Hub","OCBC Arena Hall 2 5 Stadium Drive","397631","Singapore","Singapore","Singapore","6567671248","chris@singaporebadminton.org.sg"
401,"CCAB","21 Evans Road","259366","Singapore","","Singapore","",""
402,"A.Le Coq Sport Hall","Ihaste tee 7","","Tartu","","Estonia","",""
403,"3655 W Sunset Rd","STE D","89118","Las Vegas","Nevada","U.S.A.","",""
404,"Palafijlkam","Via della Stazione di Castel Fusano","122","Roma","","Italy","",""
405,"Fatih Spor Kompleksi","Karagümrük Mah Kaleboyu Cad","111","Istanbul","","Turkiye","902422385727",""
406,"Hamdan Sports Complex","P.O.Box 66677","","Dubai","","United Arab Emirates","+971 430 62666","info@hamdansc.ae"
407,"Falkoner salen","Falkoner alle 9","2000","Frederiksberg","","Denmark","",""
408,"Granular Badminton Academy","","","Bangkok","Bangkok","Thailand","6622553391","granularacademy@hotmail.com"
409,"Bay Badminton Center Milpitas","1191 W. Montague Expressway","95035","Milpitas","CA","U.S.A.","",""
410,"UNC Fetzer Gym","101 Student Recreation Center CB #8610","27514","Chapel Hill","NC","U.S.A.","",""
411,"SGVBC1","9255 TELSTAR AVENUE","91731","EL MONTE","CA","","",""
412,"Bintang Badminton South San Francisco","245 S. Spruce Ave, Suite 700","94080","South San Francisco","CA","U.S.A.","650-624-0002","CCclawrence@aol.com"
413,"Shannon Pohl Badminton Academy","Adversity Volleyball Center 710 Corporate Woods Pkwy","60061","Vernon Hills","IL","U.S.A.","847-722-8857","badminton@shannonpohl.com"
414,"Polideportivo La Tejerona","C/ Juan Botas","33209","Gijon","Asturias","Spain","",""
415,"NVBC","44590 Guilford Dr, #100","","Ashburn","VA","U.S.A.","","teuben@gmail.com"
416,"Badmintonhal Duinwijck","Badmintonpad 1","2023 BT","Haarlem","","Netherlands","",""
417,"SG 2","3410 POMONA BLVD","91768","POMONA","CA","","",""
418,"Archie's Valley Forge Baptist Temple","616 S. Trappe Rd","19426","Collegeville","PA","U.S.A.","","pastates15@Smashville.us"
419,"Sportarena (Sportforum) Berlin","Weißenseer Weg 53","D-13053","Berlin","Berlin","Germany","",""
420,"Northern Virginia Badminton Club","44590 Guilford Dr Suite 100","20147","Ashburn","VA","U.S.A.","571-210-1527","nvbcinfo@novabadmintonclub.com"
421,"Sport Hall Hotel Arlamow","Ustrzyki Dolne","38-700","Arlamow","","Poland","",""
422,"Meri Lou Murray Recreation Center","2960 Washtenaw Avenue","48104","Ann Arbor","Michigan","U.S.A.","(734) 971-6355",""
423,"Bay Badminton Center, Milpitas","1191 Montague Expwy","95035","Milpitas","CA","U.S.A.","",""
424,"Palais des Sports","Rue Eugene Vignat","45000","Orleans","","France","","entries@cltobadminton.fr"
425,"Energia Arena","Rajatorpantie 23","FIN-01600","Vantaa","","Finland","358106330303",""
426,"Zornow Courts in the Goergen Athletic Center","500 Joseph C Wilson blvd","14627","Rochester","New York","U.S.A.","585-267-9914","bxia2@u.rochester.edu"
427,"Plano Badminton Center","4050 Premier Drive, Suite 250","75023","Plano","Texas","U.S.A.","214 509 8168","tournament@planobadmintoncenter.com"
428,"East Hills Moravian Church","1830 Butztown Road","18017","Bethlehem","PA","U.S.A.","",""
429,"Wuhan Sports Center Gymnasium","Wuhan Economic and Technological Development District","","Wuhan","","China","60392845431","events@badmintonasia.org"
430,"TBC","","","Lima","Lima","Peru","",""
431,"Rockwell Gym","106 Vasser Street","2139","Cambridge","MA","U.S.A.","",""
432,"Southern Section","","","Long Beach Poly FINAL","","U.S.A.","",""
433,"VIDENA","","","LIMA","LIMA","Peru","",""
434,"Polideportivo Municipal Marques De Samarach","Paseo Imperial 18","28005","Madrid","","Spain","",""
435,"National Armed Forces sports base","Krustbaznicas Street 9","LV-1006","Riga","","Latvia","",""
436,"ESTERO RECREATION CENTER","9200 Corkscrew Palms Blvd.","33928","Estero","FL","U.S.A.","",""
437,"Maugus Club,","40 Abbott Road","2481","Wellesley","MA","U.S.A.","781-235-8151",""
438,"Kaunas Sports Hall","Perkuno al. 5","LT-44221","Kaunas","","Lithuania","",""
439,"Bintang Badminton Club, Milpitas","746 S. Milpitas Blvd.","95035","Milpitas","CA","U.S.A.","",""
440,"SGVBC 2 POMONA","3410 POMONA BLVD","91768","POMONA","CA","","",""
441,"Lowell High School","11700 Vergennes St SE","49331","Lowell","MI","U.S.A.","",""
442,"ClearOne Badminton Centre","4141 N John Young Parkway","32804","Orlando","FL","U.S.A.","",""
443,"Sporthall Arena","Knysha Str 14A","","Gatchina","","Russia","",""
444,"Minneapolis Convention Center","1301 2nd S Avenue Suite A","55403","Minneapolis","Minnesota","U.S.A.","",""
445,"Lucky Shoals Park","4651 Britt Road","","Norcross","GA","U.S.A.","",""
446,"MBBC","516 18th St","90266","Manhattan Beach","CA","U.S.A.","",""
447,"Istora – Gelora Bung Karno","Senayan","","Jakarta","","Indonesia","",""
448,"Sport Hall Vasil Levsky","General Gurko st. 5","","Pazardzhik","","Bulgaria","",""
449,"Constantin Jude Sport Hall","7 Ripensia St.","300585","Timisoara","","Romania","",""
450,"Sportove Centrum M-Sport Trencin","Ostrov 363","","Trencin","","Slovakia","",""
451,"Northsize Aztlan Community Center","112 E. Willow St","80524","Fort Collins","CO","U.S.A.","",""
452,"Sport Hall Lokomotiv","90/1 Kotlova Str","","Kharkiv","","Ukraine","",""
453,"P.E. Society's Modern PDMBA Sports Complex","Modern High School Premises","411005","Pune","Pune","India","919822084688","indiaic@badmintonindia.org"
454,"Recreational Sports Facility","2301 Bancroft Way","94720","Berkeley","CA","U.S.A.","510-642-7796",""
455,"Sportoase Leuven","Phillpissite 6","","Leuven","","Belgium","",""
456,"Neptunas SPorts Hall","Taikos str. 61A","","Klaipeda","","Lithuania","",""
457,"Leonard Recretion Center","6324 Ballinger Rd","27410","Greensboro","NC","U.S.A.","(336) 297 4889",""
458,"Hall Omnisport La Årealle","Rue Emile Muraille 158","4040","Herstal","","Belgium","",""
459,"Helsingborg Arena,","Mellersta Stenbocksgatan 14,","254 37","Helsingborg","","Sweden","",""
460,"LVBC","7750 S. Dean Martin Drive Suite 406","89118","Las Vegas","NV","U.S.A.","",""
461,"National Football Indoor Stadium","Mongolian Football Association","26046","Ulaanbatar","Ulaanbatar","Mongolia","97691117363 / 97670007561","mba@badminton.mn"
462,"Sportovni Hala Kralovka","Nad Kralovskou oborou 51","170 00","Prague","","Czech Republic","",""
463,"Club Regatas Lima","Villa el salvador","","LIMA, VILLA EL SALVADOR","","Peru","",""
464,"Centre Sportif de la Queue-d'Arve","Rue Francois Dussaud 12","1227","Geneva","","Switzerland","",""
465,"University of Rochester, Goergen Athletic Center, Zornow Courts","500 Joseph C Wilson Blvd","14627","Rochester","New York","U.S.A.","",""
466,"Thunder Done, Muangthong Thani","99 Popular Road","11120","Bangkok","","Thailand","+662 504-5050",""
467,"Carmichael Gymnasium","2611 Cate Avenue","27695","Raleigh","NC","U.S.A.","",""
468,"Sporthall ""Marino Četković""","","51410","Opatija","","Croatia","+385 51 680 130",""
469,"Stadium Gor Djarum Jati","Kudus-Central Java","","Kudus","Kudus","Indonesia","62 21 8445078","rudy6713@yahoo.com"
470,"Gentofte Badminton Hall","Ved Stadion 4","2820","Gentofte","","Denmark","4539650400",""
471,"Constant Spring Golf Club","Constant Spring Road","","Kingston","St. Andrew","Jamaica","",""
472,"NGBA BADMINTON HALL","PTA SHOWGROUNDS","","PRETORIA","","South Africa","",""
473,"UCLA - Student Activities Center","220 Westwood Plaza","90095","Los Angeles","CA","U.S.A.","",""
474,"Centre Sportif des Isles","Avenue des Trois Lacs 1","1400","Yverdon-les-Bains","","Switzerland","",""
475,"Sporthall Mirna","Cesta na Fuzine 1","8233","Mirna","","Slovenia","",""
476,"Charlotte Badminton Club","345 Hawthorne Ln","28204","Charlotte","NC","U.S.A.","7042365448","weimin.zhang.wv@gmail.com"
477,"Gimnasio Municipal Bernardo O´higgins","","","TEMUCO","","Chile","973541",""
478,"Club Athletico Paulistano","Colombia St, 77","","Sao Paulo","Sao Paulo","Brazil","",""
479,"Esport Center","Koivu-Mankkaan tie 3","FI-02200","Espoo","","Finland","",""
480,"Mari Lou Murray Rec Center","2960 Washtenaw Ave","48107","Ann Arbor","Michigan","U.S.A.","7349716355",""
481,"sgvbc 1","9255 Telstar ave","91731","El Monte","CA","","",""
482,"Saarlandhalle Saarbrucken","An der Saarlandhalle 1","66113","Saarbrucken","","Germany","",""
483,"Shaikh Khalifa Sports City","","","Isa Town","","Bahrain","973 39258158","bic.2015@yahoo.com"
484,"Sportove Centrum M-SPORT Trencin","Ostrov 363","","Trencin","","Slovakia","",""
485,"Makarios Stadium Sports Centre","Engomi 2400","","Nicosia","","Cyprus","",""
486,"University of Wisconsin Nantatorium","2000 Observatory Dr","53715","Madison","Wisconsin","U.S.A.","2488367876",""
487,"Egret Badminton Club","1251 Basswood Road","","Schaumburg","IL","U.S.A.","",""
488,"SG 1","9255 Telstar Ave","91731","El Monte","CA","","",""
489,"Ruskeasuo Sports Hall","Ratsastie 10","280","Helsinki","","Finland","",""
490,"Goyang Stadium","Geumhwa-ro 278 beon-gil,","","Gwangju Metropolitan City","","Korea","+82 2 422 6173","badmintonkorea@bka.kr"
491,"Tap Seac Multisport Pavilion Macau","Rua de Ferreira do Amaral","","Macau","","Macau","",""
492,"Riocentro 4, Barra","","","Rio de Janeiro","","Brazil","",""
493,"Bintang Badminton Academy","245 South Spruce Avenue","94080","South San Francisco","CA","U.S.A.","650-624-0002","tournament@bintangbadminton.org"
494,"Dhaka Bangladesh","Shahid Tajuddin Ahmed Indoor Stadium","1000","Dhaka","Dhaka","Bangladesh","+880 1711531098","badminton.bangladesh@gmail.com"
495,"Gedung Graha Cakrawala","Komplex Universitas Malang","","Malang","East Java","Indonesia","",""
496,"A. Le Coq Spordihoone","Ihaste tee 7","","Tartu","","Estonia","",""
497,"PalaBadminton","Via Giovanni Cimabue 24","","Milano","","Italy","",""
498,"Criket Club of India","Brabourne Stadium","400020","Mumbai","Mumbai","India","912066027980","indiaic@badmintonindia.org"
499,"Centro Deportivo Chapultepec A.C.","Badminton Hall 6th Floor","11590","Mexico City","Distrito Federal","Mexico","",""
500,"Servet Tazegul Sports Hall","Afetevler Mahallesi 32","","Mersin","","Turkiye","",""
501,"Egret Badminton Trainig Center","1251 Basswood Rd","60173","Schaumburg","Illinois","U.S.A.","630/219-1818",""
502,"National Training Center","","","Ulaanbaatar","","Mongolia","",""
503,"Sports Hall at Primary School 14","Norwida St. 10","59300","Lubin","","Poland","",""
504,"Anteater Recreation Center","680 California Ave","92617","Irvine","CA","U.S.A.","(949) 824-5346",""
505,"TBR Hall","Gnoðavogi 1","104","Reykjavik","","Iceland","",""
506,"San Gabriel Valley Badminton Court","9255 Telstar Ave","","El Monte","CA","","",""
507,"Polideportivo Corredoria Arena","Calle Maestro Don Marciano","","Oviedo","","Spain","",""
508,"SPX 107AB","1 Washington Sq","95192","San Jose","CA","U.S.A.","",""
509,"Wiener Stadthalle B","Vogelweidplatz 14","1150","Vienna","","Austria","",""
510,"Duinwijckhall","Badmintonpad 1","2023","Haarlem","","Netherlands","",""
511,"High Performance Centre","Av. Vasco da Gama","","Caldas da Rainha","","Portugal","",""
512,"Sportarena (Sportforum) Beriln","Weißenseer Weg 53","D-13053","Berlin","","Germany","",""
513,"Constantin Jude Sports Hall","7 Ripensia Street","300585","Timisoara","","Romania","",""
514,"Sport Hall Arena Ursynow","Pileckiego str 122","02-781","Warsaw","","Poland","",""
515,"Palais de Sport","Rue Eugene Vignat","45000","Orleans","","France","",""
516,"University of Wisconsin Natatorium","2000 Observatory Dr","53706","Madison","Wisconsin","U.S.A.","2488367876",""
517,"city sport hall","123 Herzel Street","","rishon le zion","","Israel","+972-3-9413766",""
518,"Denver Athletic Club","1325 Glenarm Place","80204","Denver","CO","U.S.A.","",""
519,"Sala de sport a UVT","Str Popa Sapca","","Timisoara","","Romania","",""
520,"University Hall","Punaauia University","","Papeete","","French Polynesia (Tahiti)","",""
521,"Velohal","Noordweg 26","2291 EX","Wateringen","","Netherlands","",""
522,"Houston Badminton Center","10550 W. Airport Blvd.","77477","Stafford","TX","U.S.A.","7133643803","tournament@houstonbadmintonclub.org"
523,"The Webb Schools","","","Claremont","CA","","",""
524,"MIT","Rockwell Gymnasium 106 Vassar Street","2139","Cambridge","MA","U.S.A.","",""
525,"Алдар спорт хороо","","","Улаанбаатар","Улаанбаатар","Mongolia","",""
526,"Sporthall Medvode","Ostrovrharjeva 4","1215","Medvode","","Slovenia","",""
527,"Maugus Club","40 Abbot Road","","Wellesley","MA","U.S.A.","",""
528,"Istora Gelora Bung Karno Stadium","Senayan","10270","Jakarta","","Indonesia","",""
529,"Jelgava city sport hall","Mātera 44a","","Jelgava","","Latvia","",""
530,"Palm Beach County Convention Center","650 Okeechobee Blvd","33401","West Palm Beach","FL","U.S.A.","",""
531,"Sports Centre","Olympic Boulevard Sydney Olympic Park","","Sydney","","Australia","",""
532,"Sport Hall Marino Cvetkovic","Stubiste Lipovica","51410","Opatija","","Croatia","",""
533,"Bintang Badmitnon","746 S Milpitas Blvd","95035","Milpitas","California","U.S.A.","",""
534,"Sporthall","","","Opatija","","Croatia","",""
535,"Sporthall ""Marino Cvetkovic""","","51410","Opatija","","Croatia","+385 51 680 130",""
536,"ΔΑΚ ΣΙΔΗΡΟΚΑΣΤΡΟΥ","","","ΣΙΔΗΡΟΚΑΣΤΡΟ","","Greece","",""
537,"Cleveland Convention Center Hall A","300 Lakeside Ave E","44114","Cleveland","Ohio","U.S.A.","216.363.1444","KMaloney@clevelandsports.org"
538,"Polideportivo Marques de Samaranch","Paseo Imperial 18","","Madrid","","Spain","",""
539,"Egret Badminton Center","1251 Basswood Rd.","60173","Schaumburg","IL","U.S.A.","847-285-5788",""
540,"Hatzor Sport Hall","Kibbutz Hatzor Ashdod","6097000","Kibbutz Hatzor","","Israel","",""
541,"JOHN BOWNE HIGH SCHOOL GYM","63-25 Main Street","11367","Flushing","NY","U.S.A.","646-271-3228","info@nycbadminton.com"
542,"ClearOne Orlando Badminton Centre","4141 N. John Young Parkway","32804","Orlando","Florida","U.S.A.","(407) 730-3596",""
543,"Markin MacPhail Centre","WinSport, Winter Sport Institute","T3B 5R5","Calgary","","Canada","",""
544,"Sport Hall Arena","Generala Knysha str 14a","","Gatchina","","Russia","",""
545,"Harbour Pointe Badminton Club","3616 South Road, Building D","98275","Mulkiteo","WA","U.S.A.","",""
546,"CPB Badminton and Sports Science Training Center","81 Nang Linchi Road, Khwaeng Chong Nonsi Yannawa, Bangkok","","Bangkok","","Thailand","603 77338962","belleng@badmintonasia.org"
547,"San Jose State University Spartan Complex, SPX 107AB","1 Washington Sq","95192","San Jose","CA","U.S.A.","",""
548,"NGUYEN DU Stadium","116 Nguyen Du Street District 1","","Ho Chi Minh City","","Vietnam","",""
549,"Gimnasio Nº1 Bernardo Muñoz Vargas","Calle pisagua 808 Esquina Baquedano","","Victoria","Araucanía","Chile","",""
550,"Round Rock Sports Center","2400 Chisolm Trail","78681","Round Rock","TX","U.S.A.","","compete@greateraustinbadminton.com"
551,"George Chaytor English College","Avda. Gabriela Mistral #03015","","TEMUCO","ARAUCANIA","Chile","",""
552,"Gimnasio Bernardo O'higgins","","","TEMUCO","","Chile","",""
553,"Centro Deportivo Betico Croes","St. Cruz z/n","","St. Cruz","","Aruba","",""
554,"Federacion Nacional de Badminton de Guatemala","Coliseo Deportivo Ciudad de los Deportes Zona 4","","Guatemala","","Guatemala","+502 23320131","badmintonguate@gmail.com"
555,"coliseo deportivo","coliseo deportivo ciudad de los deportes zona 4","1004","Guatemala","","Guatemala","23320131","badmintonguate@gmail.com"
556,"Sport Hall Spartak","2 Sredna Gora Str.","","Haskovo","","Bulgaria","",""
557,"Klaipeda Sports Hall","Buriu 5","","Klaipeda","","Lithuania","",""
558,"Northside Aztlan Center","112 Willow St.","80524","Fort Collins","CO","U.S.A.","970-221-6655",""
559,"Pembangunan Jaya Raya","Badminton Training Center Jl. Murai Raya Bintaro","","Jakarta","","Indonesia","+62 21 8445080","sekjen@pbsi.or.id"
560,"Ukraine Junior international 2016","Arzhanova str., 12-b","","Dnipropetrovsk","","Ukraine","+380675601543 , +380562355384",""
561,"Estero Community Park Recreation Center","9200 Corkscrew Palms Blvd","33928","Estero","Florida","U.S.A.","",""
562,"Palace of sports ""Borisoglebskiy""","18/1 Makhova st. Ramenskoe, Moscow region. 140100","","Ramenskoe","","Russia","+7 496 467-77-80","borisoglebskey@mail.ru"
563,"Leonard Recreation Center","6324 Ballinger Rd","27410","Greensboro","NC","U.S.A.","336 297-4889",""
564,"Altona Badminton Centre","Paisley Park 271 Mason Street Altona North","","Melbourne","Victoria","Australia","",""
565,"Hall Omnisport La Prealle","Rue Emile Muraille 158","4040","Herstal","","Belgium","",""
566,"Sportovni hala Kralovka","Nad Kralovskou oborou 51","170 00","Prague","","Czech Republic","",""
567,"Bac Ninh Sports Stadium","No 319 Han Thuyen Road, Vu Ninh Ward,","","Bac Ninh","","Vietnam","84 241 3822 532","secretariat36vbf@gmail.com"
568,"Sport Hall Olympic","Batareinaya str. 2","","Vladivostok","","Russia","",""
569,"Sport Hall Europe","7 Iskarsko Shose Blvd.","","Sofia","","Bulgaria","",""
570,"Centro Nacional de Alto Rendimiento Deportivo","Miguel B. Sanchez 1050 Ciudad Autonoma de Buenos Aires","","Buenos Aires","Buenos Aires","Argentina","+54 11 5481 9703","secretario@febara.org"
571,"Gospino Polje","Liechtesteinov put 10","20000","Dubrovnik","","Croatia","",""
572,"Pakistan Sports Complex Islamabad","","","Islamabad","","Pakistan","+92 42 36313751","secretarypbf@gmail.com"
573,"Bahrain Keraleeya Samajam DJ Hall","PO Box 757, Building 32, Block 328, Road 2801,","","Bahrain","Segayya","Bahrain","+973 17251878","bic.2016@yahoo.com"
574,"MICHALIS PARASKEVOPOULOS","","","ALEXANDROUPOLI","","Greece","",""
575,"Gelora Universitas Semarang","Jl. Soekarno Hatta Semarang","","Semarang","","Indonesia","+62 21 8445080",""
576,"Sport Hall of Tennis Sport","","","Shymkent","","Kazakhstan","+7 777 249 22 50","oaskar@bk.ru"
577,"Jotunhallen","Bugårdsparken","","Sandefjord","","Norway","",""
578,"City Sport Hall Orlova","Masarykova 1313","93514","Orlova-Lutyne","","Czech Republic","",""
579,"Long Island Sports Center","22 Lumber Road","","Roslyn","New York","U.S.A.","516-621-1402","longislandsportscenter@gmail.com"
580,"Sportove Centrum M-SPORT","Ostrov 363 Zamarovce","","Trencin","","Slovakia","",""
581,"Kibbutz Hatzor sport hall","Kibbutz Hatzor","6097000","Kibbutz Hatzor","","Israel","",""
582,"Westminster Rec Center","10455 N Sheridan Blvd","80020","Westminster","CO","U.S.A.","",""
583,"John Barrable Hall","Benoni","","Benoni","","South Africa","",""
584,"Seogwipo Olympic Stadium","97 Jungsanganseo-ro Seogwipo-si","","Jeju","","Korea","+82-64-760-3658",""
585,"Shahid Tajuddin Ahmed Indoor Stadium","Bangabandhu National Stadium Complex","1000","Dhaka","","Bangladesh","88029571756",""
586,"Hawthorne Recreation Center","345 Hawthorne Lane","","Charlotte","NC","U.S.A.","",""
587,"Shaheed Tajuddin Ahmed Indoor Stadium","Bangabandhu National Stadium Complex","1000","Dhaka","","Bangladesh","+88 02 9571756","badminton.bangladesh@gmail.com"
588,"Dasharath National Stadium Kathmandu","Tripureshwor","","Kathmandu","","Nepal","+977-14101062","nepalbadminton@info.com.np"
589,"Palapellicone","Via della Stazione di Castel Fusano","122","Ostia Lido, Rome","","Italy","",""
590,"UBC","","","Fremont","CA","U.S.A.","",""
591,"NYBC","132-70 34th Ave","11354","Flushing","NY","U.S.A.","6462713228",""
592,"TTÜ Sport Hall","Männiliiva 7","13415","Tallinn","Harjumaa","Estonia","",""
593,"SPH GYM 2101","4200 Valley Drive","20742","College Park","Maryland","U.S.A.","",""
594,"EGRET","1251 Basswood Rd","","Schaumburg","IL","U.S.A.","",""
595,"Hala widowiskowo-sportowa","Wojciecha Sapety Str. 8A","41-407","Imielin","","Poland","+48 793660393","uksuniabierun@gmail.com"
596,"Sparbanken Skåne Arena","Stattenavägen","","Lund","","Sweden","",""
597,"S.D. Badminton Center Court","10806 Willow Court Suite 1","92127","San Diego","California","U.S.A.","619-864-3581","rathsy@yahoo.com"
598,"TBR","Gnoðavogi 1","104","Reykjavik","","Iceland","3545812266","tbr@tbr.is"
599,"Academy of the Holy Family","St. Michael Center Gymnasium School Hill Road","","Baltic","Connecticut","U.S.A.","",""
600,"Evangelos Florakis Sports Hall","Makarios Sports Center Avenue Engomi Nicosia","2400","Nicosia","","Cyprus","35722449868","badminton@cytanet.com.cy"
601,"Nimibutur Stadium","National Stadium Rama I Rd., Pathumwan","10330","Bangkok","","Thailand","",""
602,"9586 Distribution Ave. #E","","92121","San Diego","California","","619-647-5320",""
603,"Polideportivo Corredoira Arena","Calle Maestro Don Marciano","33011","Oviedo","","Spain","","info@badminton.es"
604,"ClearOne Sports Center","4141 North John Young Parkway","32804","Orlando","FL","U.S.A.","",""
605,"Innogy Sporthalle","An den Sportstätten 6","D-45468","Mülheim an der Ruhr","","Germany","",""
606,"Badminton Hall Duinwijck","Badmintonpad 1","2024 BT","Haarlem","","Netherlands","(+31)(0)23 5262996","tournament@dutchjunior.com"
607,"National Indoor Sports Centre","Independence Park National Stadium Kingston, Jamaica","","Kingston 6","","Jamaica","876 536-5020","antonio.bell@badmintonjamaica.com"
608,"Esporte Clube Pinheiros","Hans Nobling St, s/nr. Jardim Europa","1455010","São Paulo","SP","Brazil","",""
609,"CAR-VIDENA","AV.Del aire puerta N° 2, San Luis","","Lima","Lima","Peru","+51 977 166 751","badmintonperu@gmail.com"
610,"Synergy Badminton Academy","190 Constitution Dr","94025","Menlo Park","CA","U.S.A.","",""
611,"Sports Hall","123 Herzel Street","","Rishon Le zion","","Israel","+972-546655854","badmintonrlz@gmail.com"
612,"Ciudad Deportiva","Via Blanca y Boyeros Cerro","","La Habana","La Habana","Cuba","5376487099","alexis@inder.cu"
613,"Newark Memorial","","","Newark","CA","U.S.A.","",""
614,"San Diego Badminton Center Court","10860 Willow Crt Suite 1","92127","San Diego","California","U.S.A.","858-673-1711","rathsy@yahoo.com"
615,"CODE II Jalisco","Magisterio #1549 Colonia Miraflores C.P. 44270","","Guadalajara","Jalisco","Mexico","+52 322 226 0123",""
616,"Sports Center Mongolia","Sukhbaatar district","","Ulaanbaatar","Ulaanbaatar","Mongolia","91117363","mba@badminton.mn"
617,"San Jose State Spartan Complex","One Washington Sq","","San Jose","CA","U.S.A.","",""
618,"PEMBANGUNAN JAYA RAYA Badminton Training Center","Jl. Murai Raya, Bintaro","","Jakarta","","Indonesia","+62 21 8445080","sekjen@pbsi.or.id"
619,"Sport hall Dom sportova","Trg Krešimira Ćosića 11","10000","ZAGREB","","Croatia","38516421021",""
620,"W.P. Wagner High School","6310 Wagner Road","","Edmonton","AB","Canada","","tournament@edba.org"
621,"Veterans Sports Complex","22400 Moneta Avenue","90745","Carson","CA","","949-220-3629","cfperez1978@gmail.com"
622,"SGVBC El Monte","","","El Monte","California","","",""
623,"Stage 18 Badminton Centre","#170 - 2351 No.6 Road","","Richmond","BC","Canada","604-278-3233",""
624,"Gospino Polje Sports Hall","Liechtensteinov put 10","","Dubrovnik","","Croatia","385915210334","crobad@cba.hr"
625,"Спортын төв ордон ""А"" заал","","","Улаанбаатар","","Mongolia","",""
626,"Mandarin Badminton","500 Esna Park Drive #8","L3R 1H5","Markham","Ontario","Canada","",""
627,"Oregon Badminton Academy","5805 SW 107th Ave","97005","Beaverton","Oregon","","(503) 430-7861","usmastersintl2017@gmail.com"
628,"Sporthall ""Marino Cvetković""","","51410","Opatija","","Croatia","",""
629,"OPEN TO MEMBERS OF KIMBERTON BADMINTON CLUB ONLY","410 W Seven Stars Rd","19460","Phoenixville","PA","U.S.A.","",""
630,"""Constantin Jude"" Sports Hall","300585 Timisoara, 7 Ripensia Street","","Timisoara","Timis","Romania","40256204286","frb@badminton.ro"
631,"Shannon Pohl Badminton Academy / Adversity Volleyball Center","710 Corporate Woods Parkway","60061","Vernon Hills","Illinois","U.S.A.","",""
632,"Pasir Ris Sports Hall","","","Singapore","","Singapore","",""
633,"Hecht Athletic Center","5821 San Amaro Drive","33146","Coral Gables","Florida","U.S.A.","(305) 284-8309",""
634,"Kaunas sport hall","Perkuno al. 5","44221","Kaunas","","Lithuania","37067270222","info@badminton.lt"
635,"Birmingham-Jefferson Convention Center","2100 Richard Arrington Jr. Blvd. N","35203","Birmingham","Alabama","U.S.A.","(225) 766-6800","nsga@NSGA.com"
636,"National Badminton Centre","Rose Hill","","Rose Hill","","Mauritius","",""
637,"Polideportivo Marqués de Samaranch","Paseo Imperial 18","","MAdrid","","Spain","","info@badminton.es"
638,"CBA","46049 Warm Springs Blvd","94539","Fremont","California","","",""
639,"Mongolian badminton association","Mongolian Badminton Association chinggis avenue, khan-uul district, 15th khoroo, Olympic House 403","14210","ulaanbaatar","ulaanbaatar","Mongolia","97691117363","mba@badminton.mn"
640,"Forum de l'Universite de Cocody","Abidjan","","Abidjan","","Ivory Coast","",""
641,"Bintang Badminton","245 S. Spruce Ave, Suite 700","","South San Francisco","CA","U.S.A.","650-624-0002",""
642,"Arena","Leningrad region, Gatchina Generala Knysha street 14a","","Gatchina","","Russia","+7 921 321 07 62","fokarena@gmail.com"
643,"Kodeljevo sports hall","Gortanova ulica 21","1000","Ljubljana","","Slovenia","",""
644,"Drive Badminton Centre","#138-4551 No. 3 Road","","Richmond","BC","Canada","604-285-2638",""
645,"Custer Park","","","Marietta","GA","U.S.A.","",""
646,"Don Shula's Athletic Club","15150 Bull Run Road","33014","Miami Lakes","Florida","U.S.A.","(305) 820-8025",""
647,"Anaheim Convention Center Arena","800 W Katella Avenue","92802","Anaheim","California","U.S.A.","+1-714-765-8590",""
648,"Wasson Academic Campus","2115 Afton Way","80909","Colorado Springs","CO","U.S.A.","",""
649,"Pan Am Centre","","","Markham","Ontario","Canada","",""
650,"San Gabriel Valley Badminton Club 2: Pomona","3410 Pomona Blvd","91768","Pomona","CA","","(626) 307-4650","tournament@sgvbc.net"
651,"Gelanggang Remaja Tanjung Priok","Gelanggang Remaja Tanjung Priok Jl. Sunter Karya Utara VI/1,","","Jakarta","","Indonesia","+62 218445080","sekjen@pbsi.or.id"
652,"Wyoming High School","1350 Prairie Parkway SW,","49509","Wyoming","MI","U.S.A.","",""
653,"Eastlink Badminton Stadium","30 Old Farm Road Hamilton East","3216","Hamilton","","New Zealand","+64 6 8459336",""
654,"Covenant College","Ashe Activity Center 14049 Scenic Hwy Look Mountain, GA","","Chattanooga","TN","U.S.A.","",""
655,"Sport hall “Vasil Levsky”","City Pazardzhik 5 Gen.Gurko Bul.","4400","Pazardzhik","Sofia","Bulgaria","35929867781","badmintonbg@gmail.com"
656,"Racket Centre","Orange Grove Road","","Tacarigua","","Trinidad and Tobago","",""
657,"Atlanta Badminton Club","3975 Lakefield Court STE 102","30024","Suwanee","Georgia","U.S.A.","4049814678","chandra.madhavan@gmail.com"
658,"KHW Upper Gymnasium","350 Victoria Street","M5B 2K3","Toronto","Ontario","Canada","",""
659,"Športové centrum M-SPORT Trenčín","Ostrov 363 Zamarovce","","Trencin","","Slovakia","",""
660,"Dak Livadias","Aristofanous","32131","Livadia","","Greece","306993168859",""
661,"Lisburn Racquets Club","36 Belfast Rd Lisburn","BT27 4AS","Lisburn","","Ireland","+44 28 9266 4340",""
662,"""Sala Polivalenta"" Sports Hall","Calimanesti street no. 1","310168","Arad","","Romania","",""
663,"CBA Badminton Academy","46049 Warm Springs Blvd","94539","Fremont","CA","U.S.A.","510-438-0445",""
664,"Nguyen Du Cultural Sports Club","116 Nguyen Du Street, District 1","","Ho Chi Minh City","","Vietnam","",""
665,"Lokomotiv Sports Palace","90/1, KOTLOVA STR.","61052","Kharkiv","","Ukraine","380577022433",""
666,"Netball Central","Sydney Olympic Park","","Sydney","New South Wales","Australia","",""
667,"""NEPTŪNO"" Sports Hall","Taikos pr. 61A","","Klaipeda","","Lithuania","",""
668,"Smash! Badminton San Diego","9586 Distribution Ave Suite E","92121","San Diego","CA","","",""
669,"Rajiv Gandhi Indoor Stadium.","","","Cochin","Kerala","India","",""
670,"Anaheim Korean Presbyterian Church","1408 S. Euclid St.","92802","Anaheim","CA","U.S.A.","",""
671,"FEDERACION NACIONAL DE BADMINTON","COLISEO DEPORTIVO, CIUDAD DE LOS DEPORTES ZONA 4","1004","Guatemala","Guatemala","Guatemala","23320131","badmintonguate@gmail.com"
672,"Ethiopian Youth Academy Gymnasium Hall","Addis Ababa","","Addis Ababa","","Ethiopia","",""
673,"Mladost SportHall","","4400","Pazardhzik","Pazardhzik","Bulgaria","",""
674,"Sala polivalenta ”Nadia Comaneci”","Aleea Parcului nr. 11","","Onesti","Bacau","Romania","756106049","agapimircea01@yahoo.co.uk"
675,"Športové centrum M-Šport Trenčín","Ostrov 363 Zamarovce","","Trenčín","","Slovakia","",""
676,"Hinsdale South HS","","","Darien","IL","U.S.A.","",""
677,"National Indoor Stadium (1) Thu Wun Na","National Indoor Stadium (1) Thu Wun Na","","Yangon","","Myanmar","60377338962","belleng@badmintonasia.org"
678,"Sport Hall ""Europe""","7 Iskarsko Shose Blvd.","","Sofia","","Bulgaria","35929867781","badmintonbg@gmail.com"
679,"DELFI Sports Arena","DELFI sporto centras Ozo g. 14C","","Vilnius","","Lithuania","",""
680,"10806 Willow Court, Suite #1","","92127","San Diego","CA","U.S.A.","8586731711",""
681,"Smashville Badminton","310 E. High St.","","Pottstown","PA","U.S.A.","",""
682,"GOR AMONGROGO","Jl Kenari No 1,","55166","Yogyakarta","","Indonesia","",""
683,"Costa Cavalcante Venue","Lisboa St, sn Jardim Alice 1","85858050","Foz do Iguaçu","PR","Brazil","",""
684,"Palacio Gioriver Arias","Centro Olimpico Juan Pablo Duarte","","Santo Domingo","Santo Domingo","Dominican Republic","18098461299","gcstillofedobad@gmmail.com"
685,"Smash Badminton San Diego","9586 Distribution Ave., Suite E","92121","San Diego","CA","U.S.A.","(858) 876-2741",""
686,"Shuttlesport","1120-550 Sherling Place","","Coquitlam","BC","Canada","(604) 552-2473","office@shuttlesport.com"
687,"Campus Health & Wellness Centre","2000 Simcoe Street North","","Oshawa","Ontario","Canada","",""
688,"ClearOne Sports Centre","4141 N John Young Parkway #3","32804","Orlando","Florida","U.S.A.","407-730-3596","orlando@clearonebadminton.com"
689,"Kazakhstan, Shymkent, Sport Hall of tennis sport school","Sport Hall of tennis sport school 43/1, Askarov str., Shymkent, South-Kazakhstan province,","","Shymkent","","Kazakhstan","77772492250","oaskar@bk.ru"
690,"Palacio Georiver Arias","Centro Olimpico Juan Pablo Duarte","","Santo Domingo","Santo Domingo","Dominican Republic","18098461299","gcastillofedobad@gmail.com"
691,"Cairo National Stadium","Egypt , Cairo , Nasr City , Salah Salem Street , Cairo Stadium , Federations Building , First floor","","cairo","","Egypt","24043923","heshamtohamy72@yahoo.com"
692,"Sport hall of South Kazakhstan regional","Sport hall of South Kazakhstan regional 43/1, Askarov Str South – Kazakhstan Province,","","Shymkent","","Kazakhstan","",""
693,"Purdue Recreation & Wellness","355 N Martin Jischke Dr","47907","West Lafayette","Indiana","U.S.A.","",""
694,"Saarlandhalle Saarbrücken","An der Saarlandhalle 1","66113","Saarbrücken","","Germany","",""
695,"Aly Hasaballah","Egypt , Cairo , Nasr City , Salah Salem Street , Cairo Stadium , Federations Building , First floor","","Cairo","","Egypt","1223189951","ali-hasaballah@hotmail.com"
696,"Gentofte Badminton Hal tbc","Ved Stadion 4","2820","Gentofte","","Denmark","",""
697,"Garden Grove Sports & Recreation Center","13641 Deodara Dr","92844","Garden Grove","CA","U.S.A.","","twonla@gmail.com"
698,"Complex Sportif Mohamed V","Casablanca","","Casablanca","","Morocco","",""
699,"Liaqat Gymnasium, Pakistan Sports Complex Islamabad, Pakistan","Pakistan Sports Board Kashmir Highway near Abpara Islamabad, Pakistan","44000","Islamabad","Capital Territory","Pakistan","+92-4236313751","secretarypbf@gmail.com"
700,"San Gabriel Valley Badminton Club (SGVBC)","3410 Pomona Blvd","91768","Pomona","CA","U.S.A.","",""
701,"K Horánskej studni 29","","84102","Bratislava","","Slovakia","",""
702,"Miryang City Badminton Stadium","26 Sichung-ro, Miryang city Gyeongnam, KOREA","50420","Miryang","Gyeongnam","Korea","8224226173","badmintonkorea@bka.kr"
703,"Salle OMS HARCHA Hacéne","Place of 1st May Algiers","16000","Algiers","","Algeria","213560516867","badalgerie@gmail.com"
704,"City Sports Hall Orlova","Masarykova 1313","735 14","Orlová-Lutyně","Czech Republic","Czech Republic","420602210017","badminton@cuscz.cz"
705,"Shuttlesport Badminton Academy","Unit# 1120 550 Sherling Place","V3V 0J6","Port Coquitlam","BC","Canada","604-552-2473","office@shuttlesport.com"
706,"Mandarin BC","500 Esna Park Drive #8","L3R 1H5","Markham","Ontario","Canada","",""
707,"Polideportivo León Najnudel - Cenard","Miguel B.. Sánchez 1050","","Buenos Aires","Ciudad Autónoma de Buenos Aires","Argentina","",""
708,"Lobatse Sports Complex","","","Lobatse","","Botswana","+267 74064225","matfrey2000@yahoo.com"
709,"Singapore SportsHub OCBC Arena","","","Singapore","","Singapore","63441773",""
710,"Yeomju Gymnasium","Geumhwa-ro 278 beon-gil Seo-gu","","Gwangju City","Gwangju","Korea","062-604-1400",""
711,"Olympic Youth Development Centre","Lusaka","","Lusaka","","Zambia","",""
712,"NORTHERN VIRGINIA BADMINTON CLUB","44590 Guilford Drive, #100","20147","Ashburn","VA","U.S.A.","571-577-3065","manori.nadesalingam@gmail.com"
713,"Frisco Badminton","10550 John W. Elliott Dr, Suite # 300","75033","Frisco","Texas","U.S.A.","2146180491","friscoopen2017@gmail.com"
714,"IM Sports West Gym 3","393 Chestnut Rd","","East Lansing","Michigan","U.S.A.","",""
715,"NGBA Hall","Thabe Tswane Events Centre","","Pretoria","","South Africa","+27 12 663 3292","badmintonsa@mweb.co.za"
716,"Turkish Badminton Federation Olympic Center","Adnan Menderes Mah. 1047.Sk. No.1 Ankara Turkey","6700","Ankara","","Turkiye","903123108054","info@badminton.gov.tr"
717,"Ankara Olympic Center","Aktepe Karakoli Yani Aktepe Kecioren Turkey","6300","Ankara","","Turkiye","","tbfed@mynet.com"
718,"Kerr Hall Upper Gym","350 Victoria Street","M5B2K3","Toronto","","Canada","",""
719,"Sportovní hala města Mostu","Budovatelů 112","43401","Most","","Czech Republic","",""
720,"Axiata Arena","Kuala Lumpur Sports City","57000","Bukit Jalil","Kuala Lumpur","Malaysia","60320112655","jane.l@bam.org.my"
721,"Northern California Badminton Club","2421 Mercantile Dr, Rancho Cordova 95742","","Sacramento","CA","U.S.A.","","ncbcwinter2018@gmail.com"
722,"Istora Senayan","","","Jakarta","","Indonesia","",""
723,"SGVBC","9255 Telstar Ave","91731","El Monte","CA","","626 3074650",""
724,"Fyrisfjädern","Badmintonstigen 1","75334","Uppsala","","Sweden","",""
725,"Badminton North Harbour Centre","47 Bond Crescent Forrest Hill Auckland","745","Auckland","","New Zealand","6494106941","lisa@bnh.org.nz"
726,"22 Lumber Road","","11576","Roslyn","NY","U.S.A.","516-621-1402","longislandsportscenter@gmail.com"
727,"Badminton Centrum Pécs","Basamalom utca 33.","H-7630","Pecs","","Hungary","",""
728,"K-W Badminton Club","69 Agnes Street","N2G 2E9","Kitchener","Ontario","Canada","519-742-1844",""
729,"MTN ARENA LUGOGO","LUGOGO","256","KAMPALA","","Uganda","256772411724","smugabi2014@gmail.com"
730,"Campus Recreation and Wellness Centre, UOIT","2000 Simcoe Street North","","Oshawa","Ontario","Canada","",""
731,"Sportove centrum M-SPORT","Ostrov 363","","Zamarovce – Trencin","","Slovakia","",""
732,"Gimnasio Costa Cavalcante","","","Foz do Iguazu","Foz do Iguazu","Brazil","551935794936","operacional@badminton.org.br"
733,"US Badminton Academy","4569 Las Positas Rd","94551","Livermore","CA","U.S.A.","",""
734,"Ciudad Deportiva Sport Hall","Vía Blanca y Ave. Rancho Boyeros Municipio Cerro","","La Habana","La Habana","Cuba","5376487099","alexis@inder.cu"
735,"Arena Birmingham","King Edwards Road Birmingham","B1 2AA","Birmingham","","England","01908 268400","majorevents@badmintonengland.co.uk"
736,"city sport hall rishon le zion","Herzel street 123, rishon le zion, Israel","","Rishon Le zion","","Israel","+972-546655854","badmintonrlz@gmail.com"
737,"Czech International 2018","Hala STaRS Karviná Karola Śliwky 783/2a Karviná - Fryštát","735 06","Karviná","Czech Republic","Czech Republic","420737263077","badminton@cuscz.cz"
738,"Quan Ngua Sports Complex","No.30 Van Cao Street, Lieu Giai Ward, Ba Dinh District","100000","Hanoi","Vietnam","Vietnam","",""
739,"Glencoe","636 29 Ave SW","T2S 0P1","Calgary","AB","Canada","4032972722","jbell@badmintonalberta.ca"
740,"Campus Recreation and Wellness Centre (UOIT)","2000 Simcoe Street North","","Oshawa","Ontatio","Canada","",""
741,"Kingston Collegiate & VI","235 Frontenac St","K7L 3S7","Kingston","Ontario","Canada","(613) 544-4811","saundersm@limestone.on.ca"
742,"DOM SPORTOVA","TRG KREŠIMIRA ČOSIĆA 11","10000","ZAGREB","CROATIA","Croatia","00385 1 6421 021",""
743,"Indoor Hall","Dekou str. 4","62300","Sidirokastro","","Greece","",""
744,"Sporthal Den Willecom","Terelststraat 2","2650","Edegem","","Belgium","",""
745,"Play and Thrive","81 Remington Road","60173","Schaumburg","Illinois","U.S.A.","224-595-1513","peters@playnthrive.com"
746,"GOR PB Jaya Raya Bintaro","Jl. Garuda No.18, Sawah Lama, Ciputat, Kota Tangerang Selatan, Banten","15413","South Tangerang","","Indonesia","",""
747,"Durham District School Board","","","Whitby","Ontario","Canada","",""
748,"Sportovní hala","Chvalšinská 111","381 01","Český Krumlov","","Czech Republic","",""
749,"Vantaan Energia Areena","Rajatorpantie 23","1600","Vantaa","","Finland","",""
750,"Trinquete Corto - Cenard","Miguel B.. Sánchez 1050","","Buenos Aires","","Argentina","",""
751,"Sarkeys Fitness Center","","","Norman","OK","U.S.A.","",""
752,"Carrara Stadium","","","Goldcoast, queensland","","Australia","",""
753,"CODE II JALISCO","MAGISTERIO #1549 COLONIA MIRAFLORES","44270","GUADALAJARA","JALISCO","Mexico","523344440444","femeba2012@gmail.com"
754,"Agile Stadium of Lingshui Culture and Sports Square","Binhe South Road, Lingshui, Hainan, China (Lingshui Culture and Sports Square)","","Ling Shui","","China","",""
755,"VELO Hall","Noordweg 26","","Wateringen","","Netherlands","","dutchinternational@badminton.nl"
756,"University of Cyprus Sports Center","University Avenue 1, Aglantzia","1678","Nicosia","","Cyprus","35722449868",""
757,"DAK SIDIROKASTROU","Dekou Str. 4","62300","SIDIROKASTRO","","Greece","",""
758,"UW Natatorium","2000 Observatory Dr","53706","Madison","WI","U.S.A.","6086221543","uwmadisonbc@gmail.com"
759,"Garden Grove Recreation Center","13641 Deodara Dr","92844","Garden Grove","CA","U.S.A.","7145481457",""
760,"Maxwell Heights SS","1100 Coldstream Drive","","Oshawa","Ontario","Canada","",""
761,"Palacio de Deportes","Av. de las Fuerzas Armadas 6","21007","Huelva","","Spain","",""
762,"Wuhan Sports Center","Wuhan Sports Center Development Zone","430056","Wuhan","","China","86276884001","wscwqh@126.com"
763,"Boston Badminton club","169 Flanders Rd","1581","Westborough","MA","U.S.A.","",""
764,"Sport hall ""Vasil Levski""","General Gurko str. 5,","4400","Pazardzhik","","Bulgaria","",""
765,"CRWC (Durham College)","2000 Simcoe Street North","","Oshawa","Ontario","Canada","",""
766,"Henry M. Gunn High School","780 Arastradero Road","","Palo Alto","CA","U.S.A.","",""
767,"Rockwell Cage Gymasium","120 Vassar Street","2139","Cambridge","MA","U.S.A.","317-345-5248","CCClawrence@aol.com"
768,"Lasher High School Fieldhousel","3456 Lasher Rd","48302","Bloomfield Hills","MI","U.S.A.","9063704403",""
769,"QUAYCENTRE","Olympic Boulevard Sydney Olympic Park","","Sydney","","Australia","",""
770,"Polideportivo 2 - CAR Videna","Av. Del Aire Cdra. 8 San Luis","1","Lima","Lima","Peru","511 3706376","badmintonperu@gmail.com"
771,"Sports Hall Marino Cvetković","Stubište Lipovica","51410","Opatija","","Croatia","",""
772,"Maugus Cllub","40 Abbot Rd.","2481","Wellesley","MA","U.S.A.","",""
773,"UCSD Main Gym","9500 Gilman Dr","92093","La Jolla","CA","U.S.A.","",""
774,"Mittelschule Lauterach","Montfortplatz 16","6923","Lauterach","","Austria","",""
775,"Halle Steinbreche","Steinbreche 1","51427","Bergisch Gladbach-Refrath","","Germany","",""
776,"Fullerton Titan Gym","800 North State College Blvd.","92834","Fullerton","CA","U.S.A.","",""
777,"Sports Center ''Slana Bara - Klisa''","Sentandrejski put bb","","Novi Sad","","Serbia","",""
778,"PLAY N THRIVE","81 REMINGTON ROAD","60173","SCHAUMBURG","IL","U.S.A.","847-485-0303","heather@playnthrive.com"
779,"National Sport Center","National Sport Center Sukhbaata distric, baga toiruu","","Ulaanbaatar","Ulaanbaatar","Mongolia","+976-91117363","mba@badminton.mn"
780,"366 Industry Ave","","90712","Lakewood","CA","","6267158662",""
781,"Wisconsin Center","400 W Wisconsin Ave","53203","Milwaukee","WI","U.S.A.","",""
782,"Hall des arts, Loisirs et Sports de Cotonou","Cotonou","","Cotonou","","Benin","",""
783,"Istora Gelora Bung Karno","Jl. Jend. Sudirman","10270","Jakarta","","Indonesia","",""
784,"South Point Casino Hotel and Spa","","","Las Vegas","Nevada","","",""
785,"Centro Panamericano e Judo","Salvador Bahia","","Salvador Bahia","Salvador","Brazil","",""
786,"El Biar Multipurpose Hall","El Biar","","Algiers","","Algeria","",""
787,"Centro Panamericano de Judo","","","Salvador Bahia","Salvador Bahia","Brazil","","events@badmintonpanam.org"
788,"CAN Arena * Akita","6-12-20 Yabasehoncho Akita-shi","010-0973","Akita","","Japan","",""
789,"Gallogly Recreation and Wellness Center","1420 Austin Bluffs Parkway","80918","Colorado Springs","CO","U.S.A.","",""
790,"Nanjing Youth Olympic Games Sports Park Arena","","","Nanjing","","China","",""
791,"SC “ Meteor”","Makarova str, 27 – A","","Dnipro","","Ukraine","",""
792,"Pazardzhik","Sport Hall ""Vasil Levski"" Vasil Levski sq.","","Pazardzhik","","Bulgaria","359898700669","badpz69@gmail.com"
793,"Egret Badminton & StarTeam","1251 Basswood Road","60173","Schaumburg","IL","U.S.A.","847-285-5788",""
794,"Badminton Sport Hall ""Europe""","Blvd. Iskarsko shose 7","1000","Sofia","","Bulgaria","35929867781","badmintonbg@gmail.com"
795,"Wawasan 2020 Multi-Purpose Hall","Wawasan 2020 Multi-Purpose Hall Taman Budaya, Kangar, Perlis","1000","Perlis","","Malaysia","+603-2093 9220 / 2093 9280",""
796,"Ring Sports Center","Ringweg","","Paramaribo","Paramaribo","Suriname","(+597) 8514955","secretary@badminton.sr"
797,"CREPS BORDEAUX - Gymnase HAND/BAD","653 cours de la liberation","33400","Talence","","France","",""
798,"""NEPTŪNO"" sports hall","Taikos pr. 61A,","91182","Klaipeda","","Lithuania","+370 46341 531",""
799,"CRWC (University of Ontario)","2000 Simcoe Street North","","Oshawa","Ontario","Canada","905-721-3040","wayne.king@uoit.ca"
800,"Istora Senayan Stadium","Istora Senayan Stadium","","Jakarta","","Indonesia","",""
801,"Gentofte Badminton hal","Ved Stadion 4","2820","Gentofte","","Denmark","4539650400","gbk@gbk.dk"
802,"Sport Hall ''Spartak''","2 Sredna Gora Str.","6300","Haskovo","","Bulgaria","",""
803,"Hvidovre Badminton Club","Bibliotekvej 62","2650","Hvidovre","","Denmark","",""
804,"all d'Hebron Olympic Sports Centre","Passeig de la Vall d'Hebron 166-176","8035","Barcelona","","Spain","",""
805,"Sport Hall at High School No2","Niepodleglosci Street 31","59-300","Lubin","","Poland","",""
806,"Piedmont Hills High School","1377 Piedmont Rd","95132","San Jose","California","U.S.A.","510-999-1111","tonyhong007@gmail.com"
807,"G.M.C. Balayogi SATA Indoor Stadium","Gachibowli","500032","Hyderabad","","India","",""
808,"Falcon Club","20 Pobediteley Ave.","220020","Minsk","","Belarus","375447710048",""
809,"Basketball hall 'Dražen Petrović'","Savska 30, Zagreb","10000","Zagreb","","Croatia","",""
810,"AC Academy","22 Town Farm Rd","1886","Westford","MA","U.S.A.","7745459886","tanggwei@gmail.com"
811,"Club28 Badminton Philadelphia","3559 Edgemont St.","","Philadelphia","Pennsylvania","U.S.A.","917-7082727","club28.usa@gmail.com"
812,"Purdue Recreation & Wellness (CoRec)","355 N Martin Jischke Drive","47906","West Lafayette","Indiana","U.S.A.","",""
813,"Kalev Sports Hall","Juhkentali 12","10132","Tallinn","","Estonia","",""
814,"Musashino Forest Sport Plaza","290-11 Nishi-machi Chofu-shi","182-0032","Tokyo","","Japan","",""
815,"Kingsway Indoor Stadium","130 Kingsway Madeley Western Australia","6065","Perth","Western Australia","Australia","","bawa@badmintonwa.org.au"
816,"Titanium Security Arena","44A Crittenden Road Findon South Australia","","Adelaide","South Australia","Australia","","oatense@gmail.com"
817,"Malmö Badmintoncenter","Eriksfältsgatan 30","214 55","Malmö","","Sweden","",""
818,"GOR Sahabudin","Jalan Pulau Pelepas","","Pangkalpinang","","Indonesia","",""
819,"Gimnasio Teodoro Palacios Flores","12 Avenida 25-50 Zona 5 de Guatemala","1005","Guatemala","Guatemala","Guatemala","+502 2332 0131","badmintonguate@gmail.com"
820,"Gimnasio Olímpico de Ciudad Deportiva","Lic. Adolfo López Mateos Oriente #1610 Colonia Los Héroes de Aguascalientes Desarrollo Especial Parque IV Centenario","20190","Aguascalientes","Aguascalientes","Mexico","523318453349","femeba2012@gmail.com"
821,"Sydney Olympic Park Sports Hall","Corner Olympic Boulevard and Grand Parade Sydney Olympic Park","2127","Sydney","New South Wales","Australia","",""
822,"Hall Omnisport La Préalle","rue E. Muraille 158","4040","Herstal","","Belgium","32474856290","denieuport@lfbb.be"
823,"Pabellón Multiusos de Guadalajara","Av. de El Vado 13","19005","Guadalajara","","Spain","",""
824,"SK Handball Stadium","Olympic-ro 424 Songpa-Gu","","Seoul","","Korea","+82 2 410 1683",""
825,"NAS Sports Complex","NAS Sports Complex NAS Sports Complex, Nad Al Sheba, Dubai – UAE","5555","Dubai","","United Arab Emirates","00971-558990580","j.ebrahim@bwfbadminton.org"
826,"LI NING Czech Open 2018","Sports Hall Voddova","612 00","Brno","Czech Republic","Czech Republic","+420 602 710 853","ladislav.vorel@centrum.cz"
827,"Sportenum","5 allée des sports","68128","Saint Louis","","France","",""
828,"Sportove centrum M-Sport","Ostrov 363","","Zamarovce - Trencin","","Slovakia","",""
829,"Triangle Badminton Club (TBC)","1012 Morrisville Parkway","27560","Morrisville","NC","U.S.A.","919-423-1204","info@trianglebadmintonclub.com"
830,"Don Knabbe Community Park","","","Cerritos","CA","U.S.A.","",""
831,"Mandalar Thiri Multi-Purpose Stadium","Mandalar Thiri Multi-Purpose Stadium","","Mandalay","","Myanmar","",""
832,"Sport Hall „Europe“","No:7 Iskarsko Shose Blvd","1528","Sofia","Sofia","Bulgaria","359879595510","badmintonbg@gmail.com"
833,"Delfi sports centre","Ozo str. 14c","","Vilnius","","Lithuania","",""
834,"BLOOMFIELD HILLS MIDDLE SCHOOL","4200 West Quarton Rd","48302","Bloomfield Hills","Michigan","U.S.A.","248-709-4511","mathewoo@aol.com"
835,"CRWC (UOIT)","2000 Simcoe Street North","","Oshawa","Ontario","Canada","",""
836,"UCLA Student Activities Center","220 Westwood Plz","90095","Los Angeles","CA","U.S.A.","",""
837,"Indoor Hall Kladisos","Antypa 2 street","73100","Chania","","Greece","","g-athlitismos@chania.gr"
838,"PALACIO DE LOS DEPORTES","Centro Olimpico Juan Pablo Duarte","","Santo Domingo","Distrito Nacional","Dominican Republic","8095440965","fedobadrd@gmail.com"
839,"Sporthalle Mödling","Dr. Hanns Schürff - Gasse 53","2340","Mödling","","Austria","",""
840,"SGVBC 2 Pomona","3410 Pomona Blvd","91768","Pomona","CA","","",""
841,"ClearOne Sport Centre","4141 N Young Parkway","32804","Orlando","Florida","U.S.A.","",""
842,"Yan Long Badminton Club","4800 Rivergrade Rd","91706","Irwindale","CA","","",""
843,"Budaors Sportshall","Harsfa utca 6.","H-2040","Budaors","","Hungary","",""
844,"UW Madison Natatorium","2000 Observatory Drive","53706","Madison","Wisconsin","U.S.A.","630-528-7888",""
845,"Haixia Olympic Sports Center","Jianxin Nan Road Cangshan District","","Fuzhou","","China","",""
846,"Universal Gym TOO “TH Nafta”","ul. Eskalieva 175","","Uralsk","","Kazakhstan","",""
847,"Purdue Recreation and Wellness","355 N Martin Jischke Dr","47907","West Lafayette","Indiana","U.S.A.","",""
848,"Lobtase Sports Complex","Lobatse","","Gaborone","","Botswana","",""
849,"multipurpose sporhall","175, Yesskaliyeva str., Uralsk, West Kazakhstan region, Republic of Kazakhstan","90000","Uralsk","West-Kazakhsatn","Kazakhstan","77772492250","oaskar@bk.ru"
850,"Športna hall Brežice","Černelčeva cesta 10","8250","Brežice","","Slovenia","00 386 8 20 55 858","tajnistvo@zsport-brezice.si"
851,"City Sporthall Orlova","Masarykova 1313 Orlova - Lutyne","73514","Orlova Lutyne","Czech Republic","Czech Republic","420602210017","jana.kovacicova@seznam.cz"
852,"Heartbeat@ Bedok","Heartbeat@ Bedok Sport hall level 4 Bedok North Street 1","469662","Singapore","","Singapore","",""
853,"Gwangju Women's University Stadium","201 Yeodae-gil","","Gwangju","","Korea","+82 62 956 2500",""
854,"Tennis Table Pavillion","Parque del Este","11604","Santo Domingo","Santo Domingo Este","Dominican Republic","8098461299","gcastillofedobad@gmail.com"
855,"UC Davis Pavilion","232 ARC One Shields Ave","95616","Davis","CA","U.S.A.","",""
856,"National Sports counsil","National Stadium. Tripureshwor. Kathmandu. Nepal.","2","Tripureshwor","Kathmandu","Nepal","+977-1-4101062","nepbad@gmail.com"
857,"San Salvador","San Salvador, El Salvador","","San Salvador","San Salvador","El Salvador","+503 2270 9369","fesalbad@hotmail.com"
858,"John Tyers Badminton Hall","Kenilworth","","Cape Town","","South Africa","+27 12 663 3292","badmintonsa@mweb.co.za"
859,"A le coq Spordimaja","Ihaste tee 7, Tartu, Estonia","50104","Tartu","Tartu maakond","Estonia","",""
860,"A le Cog Sporthall","Ihaste tee 7","","Tartu","","Estonia","",""
861,"Miryang Badminton Hall","26 Sichung-ro","50420","Miryang city","Gyeongnam","Korea","+82-55-359-6256","badmintonkorea@bka.kr"
862,"Turkey Olympic Center","Adnan Menderes mah. 1047 sok. no: 1 Kecioren","","Ankara","","Turkiye","903123108054","tbfed@mynet.com"
863,"10410 Valley Blvd","","91731","El Monte","CA","U.S.A.","",""
864,"South Surrey Recreation & Arts Centre","14601 20 Avenue","","Surrey","BC","Canada","604-592-6970",""
865,"Indoor Stadium Huamark","Ramkhamhaeng Rd, Khwaeng Hua Mark Khet Bang Kapi Krung Thep Maha Nakhon","10240","Bangkok","","Thailand","6622553391","info@badmintonthai.or.th"
866,"SMASH Badminton","9586 Distribution Ave Suite E","92121","San Diego","CA","","(858) 876-2741",""
867,"Fyrisfjädern Badminton hall","Badmintonstigen 1","","Uppsala","","Sweden","",""
868,"Iran Badminton Federation","","","Tehran","","Iran","982188984440","bad.iranfed@yahoo.com"
869,"Melbourne Sports and Aquatic Centre","30 Aughtie Drive","3206","Melbourne","Victoria","Australia","",""
870,"Complexe Sportif Regional","rue du Bois","62120","Aire sur la Lys","","France","",""
871,"Vall d’Hebron Olympic Sports Centre","Passeig de la Vall d'Hebron, 166-176","8035","Barcelona","","Spain","34915428384",""
872,"Settha Badminton Club","Settha Badminton Club Ban Bungkhayong, Sisattanak District,","","Vientiane","Vientiane Capital","Lao","+856-20-5572 9659","ssvblf@gmail.com"
873,"Smashville Pottstown","310 E High st","19464","Pottstown","Pennsylvania","U.S.A.","",""
874,"Sportove Centrum M-Sport","Ostrov 363, Zamarovce","","Trencin","","Slovakia","421905257791","sekretar@bedminton.sk"
875,"Badmintonhall DEGIRO","Badmintonplein 1","2023 BW","Haarlem","","Netherlands","","tournament@dutchjunior.com"
876,"Triangle Badminton Club","1012 Morrisville Parkway","27560","Morrisville","NC","U.S.A.","919-650-1824","info@trianglebadmintonclub.com"
877,"Arena Badminton Club","2780 South Reservoir St","91766","Pomona","CA","U.S.A.","626-267-9321",""
878,"GOR PBSI SUMUT","Jalan Pancing","","Medan","","Indonesia","+62 21 8445080","sekjen@pbsi.or.id"
879,"""Ciudad Deportiva"" Sport Hall","Avenida Rancho Boyeros y Vía Blanca Cerro","","La Habana","La Habana","Cuba","5376487099","alexis@inder.cu"
880,"Gan Nachum, city sport hall","123 Hertzel street","","Rishon Le zion","","Israel","+972-3-9413766","badmintonrlz@gmail.com"
881,"The Brushy Creek Municipal Utility District Community Center","16318 Great Oaks Drive","78681","Round Rock","TX","U.S.A.","",""
882,"Śląskie Centrum Tenisa","Bieruńska Street 78","43-200","Pszczyna","","Poland","",""
883,"Queensborough Badminton Center","20-24 119th Street","11356","College Point","NY","U.S.A.","718-358-5700","queensbcny@gmail.com"
884,"The Derrick Club","3500 119 St NW","T6J 5P5","Edmonton","Alberta","Canada","780-437-1833","info@derrickclub.com"
885,"Main Gym, Patti Herbert Wellness Center","1241 Theo Dickinson Dr","33146","Coral Gables","FL","U.S.A.","(305) 284-8500",""
886,"CRWC (Universty of Ontario)","2000 Simcoe Street North","L1H 7K4","Oshawa","Ontario","Canada","",""
887,"KD Jadhav Indoor Hall","IG Indoor Stadium ITO Vikram Nagar","","New Delhi","","India","",""
888,"Centro Civico de Americana Venue","Sergipe St, 230 Jardim Colina","13478241","Americana","SP","Brazil","",""
889,"Siguldas Sporta centrs","Ata Kronvalda 7A","LV-2150","Sigulda","","Latvia","",""
890,"Gospino Polje Sports hall","","20000","Dubrovnik","","Croatia","",""
891,"Arena Badminton & Sports Club","2780 S. Reservoir St,","","Pomona","CA","U.S.A.","",""
892,"Barlett High School","1101 Golden Bear Dr","99504","Anchorage","AK","U.S.A.","19073505501",""
893,"Smashville & Kimberton Waldorf school","","","Pottstown/Phoenixville","Pennsylvania","U.S.A.","",""
894,"Tay Ho District Stadium","101 Xuan La Road, Tay Ho District, Hanoi","100000","Hanoi","Vietnam","Vietnam","",""
895,"ssss","300 scugog street","L1C 3K2","bowmanville","ontario","Canada","",""
896,"University of Michigan","North Campus Recreational Building 2375 Hubbard Rd","48109","Ann Arbor","MI","U.S.A.","",""
897,"San Gabriel Valley Badminton Club - Pomona","3410 Pomona Blvd","91768","Pomona","CA","U.S.A.","",""
898,"Den Willecom","Terelststraat 2","2650","Edegem","","Belgium","",""
899,"Banthongyord badminton school","136/7 Putthamonthon sai3 Bangphai Bangkae","10160","Bangkok","","Thailand","66841375500","Info@badmintonthai.or.th"
900,"Durham College/Ontario Tech","2000 Simcoe Street North","","Oshawa","Ontario","Canada","",""
901,"Gimnasio Olimpico","","","Aguascaientes","","Mexico","",""
902,"Civic Centre","Port Hacourt","","Port Hacourt","","Nigeria","",""
903,"Eventfinda Stadium","Silverfield Lane Wairau Valley","627","Auckland","","New Zealand","",""
904,"GOR PB. JAYA RAYA","JL. Garuda, Kel. Sawah Baru, Kec. Ciputat","15413","Tangerang Selatan","Banten","Indonesia","","pb.jayaraya@gmail.com"
905,"FONTE SÃO PAULO VENUE","José Paulino St., 2.138 Vila Itapura","","Campinas","SP","Brazil","",""
906,"Sport hall 'Vasil Levski'","General Gurko str. 5","","Pazardzhik","","Bulgaria","",""
907,"National Athletic Center","Mikra Kalamaria","55132","Thessaloniki","","Greece","","halatsoglou@yahoo.gr"
908,"CIF SS","","","Southern Section","CA","","",""
909,"Bloomfield Middle School","4200 W Quarton RD","","Bloomfield Hills","MI","U.S.A.","9063704403",""
910,"POLIDEPORTIVO 2 - CAR VIDENA","Av. Del Aire Cdra. 9 San Luis","Lima 30","Lima","Lima","Peru","51-1-3706376","badmimtonperu@gmail.com"
911,"Farum Arena","Stavnsholtvej 43","3520","Farum","","Denmark","",""
912,"National Athletic Center Mikra","","55132","Kalamaria","","Greece","","halatsoglou@yahoo.gr"
913,"Erwin Kranz Halle","Limpericher Straße 141","53225","Bonn","North Rhine-Westphalia","Germany","+49 228 469 900",""
914,"Burnsville High School","600 State Hwy 13","55337","Burnsville","Minnesota","U.S.A.","",""
915,"Sport hall Marino Cvetkovic","Stubište Lipovica 3","51410","Opatija","","Croatia","",""
916,"Salle Everest","180 Boulevard de Charavines","38500","Voiron","","France","33665391687","contact@fzalpi.eu"
917,"YAN LONG BADMINTON CLUB","4800 RIVERGRADE RD UNIT B","91706","IRWINDALE","CA","","",""
918,"Shannon Pohl Badminton Academy (Adveristy Volleyball Center)","710 Corporate Wood Pkwy","60061","Vernon Hills","IL","U.S.A.","847-722-8857",""
919,"Zemgales Olimpiskais Centrs","Kronvalda 24","LV-3004","Jelgava","","Latvia","37129546666","yli@badminton.lv"
920,"BADMINTON CENTER COURT","3699 INUDSTRY AVENUE","","LAKEWOOD","CALIFORNIA","","5624269299","andy.t@badmintoncentercourt.com"
921,"Delta College Blanchard Gym","5151 Pacific Avenue","95207","Stockton","California","U.S.A.","2092982631","mike_h_phan@yahoo.com"
922,"Quaycentre","Sydney Olympic Park","","Sydney","New South Wales","Australia","",""
923,"Baku Sports Hall","Neftchilar avenue 26a Sabail district","AZ1000","Baku","","Azerbaijan","+99412 492 45 59","office@badminton.az"
924,"Sporthalle Steinbreche","Steinbreche 1","51427","Bergisch Gladbach","","Germany","",""
925,"Cido Arena","Parko str. 12","37310","Panevėžys","","Lithuania","+370 672 70222","li2019@badminton.lt"
926,"Polideportivo Municipal 'Marqués de Samarach'","Paseo Imperial 18","28005","Madrid","Madrid","Spain","34915428384","internacional@badminton.es"
927,"Navin Soonarane Gymnasium","Ebene","+230 4545158","Quatre Bornes","","Mauritius","4545158","badminton@intnet.mu"
928,"Albuquerque Convention Center","401 2nd St. NW","87102","Albuquerque","New Mexico","U.S.A.","",""
929,"Comstock Park High School","150 6 Mile Road Northeast","49321","Comstock Park","MI","U.S.A.","",""
930,"Fieldhouse USA","6155 Sports Village Road","75033","Frisco","Texas","U.S.A.","",""
931,"Stade de l'Amitié - Général Mathieu KEREKOU","Rue 2651, Cotonou littoral","","Cotonou","Republique du Bénin","Benin","22996252674","assogbaubin@yahoo.fr"
932,"Polideportivo Sa Pedrera","Carretera de Santa Agnés, 15","7820","Sant Antoni de Portmany (Ibiza Island)","","Spain","",""
933,"Palais des Sports de Treichville","01 Bp 6177 Abidjan 01","","Abidjan","","Ivory Coast","22507092360","honore_zolobe@yahoo.fr"
934,"Titan Gym","California State University, Fullerton 800 N State College Blvd","92831","Fullerton","California","U.S.A.","",""
935,"Sport Hall “Spartak”","2 Sredna Gora Str.","","Haskovo","","Bulgaria","",""
936,"Sport Hall Olympik","Batareynaya str. 2","","Vladivostok","","Russia","",""
937,"CEPS LOUIS – J. ROBICHAUD","","","Moncton","New Brunswick","Canada","",""
938,"Newark Event Center","39375 Cedar Blvd","94560","Newark","California","U.S.A.","",""
939,"Trust Emporium Sports Center","Accra","233","Accra","Accra","Ghana","233244103798","events@ghanabadminton.org"
940,"Suzhou Olympic Sports Centre","Suzhou Olympic Sports Centre No. 999, Zhongxin Avenue Suzhou Industrial Park","","Suzhou","","China","",""
941,"OKOYA THOMAS HALL, TESLIM BALOGUN STADIUM","SURULERE, LAGOS","101283","LAGOS","LAGOS","Nigeria","2347084850887","info@badmintonnigeria.org"
942,"Balboa Activity Center","2145 Park Blvd","","San Diego","CA","","",""
943,"University of Colorado Colorado Springs","Gallogly Recreation and Wellness Center 1420 Austin Bluffs Parkway","80918","Colorado Springs","CO","U.S.A.","",""
944,"Polideportivo 3","Avenida del Aire cuadra 10","","Lima","Lima","Peru","",""
945,"Olimpiya+","Arzhanova str. 12b","49047","Dnipro","","Ukraine","",""
946,"Sport Hall ""Vasil Levski""","General Gurko str. 5","","Pazardzhik","Pazardzhik","Bulgaria","35929867781",""
947,"Walnut Rec Center","21003 La Puente Rd","91789","Walnut","CA","U.S.A.","(909) 444-7959",""
948,"Badminton Hall ""Europe""","7 Iskarsko Shose blvd.","1000","Sofia","Sofia","Bulgaria","35929867781","badmintonbg@gmail.com"
949,"CNS Arena Akita","6-12-20 Yabasehoncho Akita-shi","010-0973","Akita","","Japan","",""
950,"Sir Garfield Sobers Gymnasium","Wildey","","St Michael","","Barbados","",""
951,"SESI AMERICANA","Bandeirantes Avenue, 1.000 Chacara Machadinho","","AMERICANA","SP","Brazil","",""
952,"Creps Bordeaux - Gymnase Hand/Bad","653 cours de la liberation","33400","Talence","","France","",""
953,"""NEPTŪNO"" Sports hall","Taikos pr. 61A","91182","Klaipėda","","Lithuania","+370 672 70222","info@badminton.lt"
954,"Gor Lembah UGM","Gor Lembah UGM Universitas Gadjah Mada, Caturtunggal, Depok, Kecamatan Depok, Kabupaten Sleman, Daerah Istimewa","55281","Yogyakarta","","Indonesia","",""
955,"Kompleks Kejiranan Presint 11","Kompleks Kejiranan Presint 11 Jalan P11/2, Presint 11","62300","Putrajaya","","Malaysia","60126254338",""
956,"Gentofte Badminton Club","Ved Stadion 4","2820","Gentofte","","Denmark","4539650400","gbk@gbk.dk"
957,"Prince Hamza bin AL - Hussein Sports Hall","Prince Hamza bin AL - Hussein Sports Hall, Al Hussein Youth City Gate No. 6","","Amman","","Jordan","+96 2797956965",""
958,"Ain Chock Hall","Casablanca","","Casablanca","","Morocco","",""
959,"International Badminton Club","3775 Park Ave","8820","Edison","New Jersey","U.S.A.","",""
960,"GOSiR Gniezno Sports Hall","Sportowa 3-5","62-200","Gniezno","","Poland","4531718283","events@badmintoneurope.com"
961,"NAS Sports complex","NAS Sports complex NAS Sports Complex, Nad Al Sheba, Dubai – UAE.","","Dubai","","United Arab Emirates","971558990580","j.ebrahim@bwfbadminton.org"
962,"Titanium Arena","44A Crittenden Rd Findon","5023","Adelaide","South Australia","Australia","",""
963,"Male’ Sports Complex","Male’ Sports Complex Maafaiythakurufaanu Magu Machchangoalhi","20384","Male","Kaafu","Maldives","3314057","admin@badmintonmaldives.org.mv"
964,"Olympic Sports Center Gymnasium","1 Jinling North Road","","Changzhou","","China","",""
965,"GIMNASIO DE CIUDAD DEPORTIVA","ADOLFO LOPEZ MATEOS OTE 1610 DESAROLLO ESPECIAL PARQUE IV CENTENARIO","20190","AGUASCALIENTES","AGUASCALIENTES","Mexico","5213344440444","FEMEBA2012@GMAIL.COM"
966,"Incheon Ariport Skydome","","","Incheon","","Korea","8224226173","hanwg@bka.kr"
967,"National Sports Council","National Sports Council Dashrath Stadium Coverd Hall","80600","Tripureshwor","Kathmandu","Nepal","+977 14101062","ramji@nocnepal.org.np"
968,"Sportovni hala Vodova","Vodova 108","612 00 Brno","Brno","","Czech Republic","420737263077","badminton@cuscz.cz"
969,"Sutinska Vrela","Podsusedski trg 14","10000","Zagreb","","Croatia","",""
970,"Atlanta Recreation club","2711 Pine Grove Rd, Cumming","","Cumming","GA","U.S.A.","",""
971,"GOR Ken Arok","Jalan Mayjen Sungkono Buring","","Malang","East Jawa","Indonesia","",""
972,"Delfi Sports Centre","Ozo g. 14c","","Vilnius","","Lithuania","",""
973,"EastBay Badminton Association","4230 Hubbard Street","94608","Emeryville","CA","U.S.A.","5106558989",""
974,"Gor Sudirman","Gor Sudirman Jalan Ir. Soekarno No. 8, Surabaya","","Surabaya","","Indonesia","",""
975,"Washington County Legacy Park Grafton Building","5500 West 700 South","84737","Hurricane","Utah","U.S.A.","",""
976,"Addu City","","","Addu City","","Maldives","+960 7779140","admin@badmintonmaldives.org.mv"
977,"Khalifa Sport City","","","Isa Town","Isa Town","Bahrain","+ 973-39666766","bbsf@bbsf.bh"
978,"CLUBE FONTE SÃO PAULO","Rua José Paulino nº 2.138 Guanabara","","Campinas","SP","Brazil","",""
979,"innogy-Sporthalle","An den Sportstätten 6","45468","Mülheim an der Ruhr","","Germany","",""
980,"Odense Sportspark","Israels Plads 3","5200","Odense V","","Denmark","",""
981,"Volleyball Pavillion","Centro Olimpico Juan Pablo Duarte","10111","Santo Domingo","Distrito Nacional","Dominican Republic","8098461299","gcastillofedobad@gmail.com"
982,"Egyptian Badminton Federation","Nasr City , Salah Salem Street , Cairo Staduim , Federation Buildings , First Floor , Apartment No.3","","Cairo","","Egypt","1008229568","Egyptinternaional2019@gmail.com"
983,"Algerian badminton federation","Cite olympique Mohamed boudief-Alger-Algerie","16000","Alger","Alger","Algeria","213558988942","badalgerie@gmail.com"
984,"Hatzor sport hall","Kibbutz Hatzor-Ashdod","60970","Kibbutz Hatzor","","Israel","+972-524234732","bchatzor@gmail.com"
985,"ARENA","2780 S Reservoir St","","Pomona","CA","U.S.A.","",""
986,"Federation Agerienne de Badminton","Cite olympique Mohamed Boudiaf -Alger - Agérie","16000","Alger","Algerie","Algeria","21323258217","badalgerie@gmail.com"
987,"Budaörs Városi Sportshall","Hársfa utca 6.","H-2040","Budaörs","","Hungary","","office@badminton.hu"
988,"sport hall of TH ""Nafta""","Uralsk, ul. Eskalieva 175,","","Uralsk","","Kazakhstan","77772492250","oaskar@bk.ru"
989,"Pakistan Sports Complex","Kashmir Highway Near Abpara, Islamabad","46000","Islamabad","Capital","Pakistan","+92-3219466921","secretarypbf@gmail.com"
990,"South Gym, Student Rec Center","University of Arizona 1400 E 6th St","85721","Tucson","Arizona","U.S.A.","","uazbadminton@gmail.com"
991,"Bellevue Badminton Club -- Renton","846 Lind Ave SW","98057","Renton","Washington","U.S.A.","425-277-4721","info@bellevuebadminton.com"
992,"Ring Sport Center","Ringweg Noord 36","","Paramaribo","","Suriname","+ 597 8539378","subabo.secr@gmail.com"
993,"Palais des Soprts","Yaounde","","Yaounde","","Cameroon","",""
994,"City Sports Hall Orlová","Masarykova 1313","735 14","Orlová-Lutyně","","Czech Republic","420602210017","jana.kovacicova@seznam.cz"
995,"Long Island Sport center","20-24, 119th street","11356","College Point","NY","U.S.A.","516-621102",""
996,"Smashville MainLine","250 King manor Dr.","","King of Prussia","PA","U.S.A.","",""
997,"Heartbeat @ Bedok - Sports Hall Level 4","Heartbeat @ Bedok - Sports Hall Level 4 Bedok North Street 1, Singapore","469662","Singapore","","Singapore","",""
998,"Cricket Club of India, Mumbai (CCI)","Brabourne Stadium, Dinshaw Vachha Road, Churchgate,","400020","Mumbai","Maharashtra","India","+91 11 41450524","info@badmintonindia.org"
999,"BNSC Indoor Hall,Lobatse Sports Complex","Lobatse Sports Complex P.O.Box 1404 Gaborone","0","Lobatse","Lobatse Town Council","Botswana","+267 3953449","tiketeng@bnsc.co.bw"
1000,"Sporthall Brežice","Černelčeva cesta 10","8250","Brežice","","Slovenia","","dusan.skerbis@badminton-zveza.si"
1001,"DFW Badminton Center","1800 Hurd Dr.","75038","Irving","TX","U.S.A.","949-436-8849",""
1002,"Olympic youth development centre","Great North road","","Lusaka","","Zambia","260955435789","kingsley_mulenga@yahoo.com"
1003,"Palacio de los Deportes Carlos ""El Famoso"" Hernández","","","San Salvador","","El Salvador","+503 22709369","fesalbad@hotmail.com"
1004,"Muntinlupa Sports Center","","","Manila","","Philippines","",""
1005,"Tswane Show Grounds","Thabe Tswane Events Centre South Africa","1","Pretoria","","South Africa","27126633292","landas@lando.co.za"
1006,"Atlanta Recreation Club","2711 Pine Grove Rd","30041","Cumming","GA","U.S.A.","",""
1007,"IBC 2","10 New Maple Ave., Unit 302","7058","Pine Brook","NJ","U.S.A.","732-549-7190","info@ibcusa.org"
1008,"Santa Fe Springs Badminton Club","11323 Shoemaker Ave","90670","Santa Fe Springs","CA","U.S.A.","",""
1009,"University of Cyprus","University Avenue 1","","Nicosia - Aglantzia","","Cyprus","",""
1010,"Shaheed Tajuddin Ahmed Indoor Stadium Bangabandhu National Stadium Complex","(South East Corner of Paltan Maidan) Dhaka-1000, Bangladesh","1000","Dhaka","Dhaka","Bangladesh","8801819629512","badminton.bangladesh@gmail.com"
1011,"Olympic Center","Adnan menderes mah 1047 sokak no: 1 Kecioren Ankara","","Ankara","","Turkiye","903123108054","info@badminton.gov.tr"
1012,"Midwest Badminton Club-Naperville","2019 Corporate Lane Suite 103","60563","Naperville","IL","U.S.A.","312-927-2885","info@mbadmingon.com"
1013,"Egret Badminton Center-Naperville","1811 High Grove Ln #191","","Naperville","IL","U.S.A.","630-536-8032",""
1014,"Smashville Mainline","250 King Manor Dr","19406","King of Prussia","PA","U.S.A.","","TD@smashville.us"
1015,"Royal Badminton Academy","44590 Guiford Dr.Suite 100","2014","Ashburn","VA","U.S.A.","703-258-1300",""
1016,"EGRET Badminton Club","1251 Basswood Rd","60173","Schaumburg","Illinois","U.S.A.","",""
1017,"Dasharatha Stadium National Sport Councils","Dasharatha Stadium National Sport Councils Tripureshwor","","Kathmandu","","Nepal","",""
1018,"IFU Arena","Råbyvägen 77","754 26","Uppsala","","Sweden","","info@badminton.nu"
1019,"Indoor stadium Huamark","Ramkhamhaeng Rd. Khweang Hua Mark Khet Bang Kapi Krung Thep Maha","10240","Bangkok","","Thailand","",""
1020,"Tennis- og badmintonfélag Reykjavíkur","Gnoðarvogur 1","104","Reykjavík","","Iceland","+ 354 897 4184","bsi@badminton.is"
1021,"CSULB Kin West Gym","West Gym","90816","Long Beach","California","U.S.A.","",""
1022,"RichmondPro Badminton Centre","#130-5800 Minoru Blvd.","V6X 2B1","Richmond","BC","Canada","604-231-0999",""
1023,"Polideportivo Municipal de Arroyo de la Miel","Calle Orujo","s/n 29631","Benalmádena","Málaga","Spain","",""
1024,"Club28 Badminton","3559 Edgemont St.","19134","Philadelphia","PA","U.S.A.","",""
1025,"Ken Kay Badminton Stadium","Dowling Street Wendouree","3355","Ballarat","Victoria","Australia","",""
1026,"Arena Stade Couvert","Chemin des Manufactures","62800","Liévin","","France","","events@badmintoneurope.com"
1027,"Cairo Stadium Hall No 2","Nasr City","","Cairo","","Egypt","",""
1028,"Robertson Gym","18 Ocean Rd","93117","Isla Vista","CA","U.S.A.","",""
1029,"Vall d'Hebron Olympic Sports Centre","Passeig de la Vall d'Hebron 166-176","8035","Barcelona","","Spain","",""
1030,"Palabadminton","Via Giovanni Cimabue 24","20148","Milano","italy","Italy","00390683800707/708","valentinaleonardi@badmintonitalia.it"
1031,"San Diego Badminton Club","2145 Park Blvd.","92101","San Diego","CA","","858-581-7100",""
1032,"Badmintonhall DEGIRO hall","Badmintonplein 1","2023 BW","Haarlem","","Netherlands","","tournament@dutchjunior.com"
1033,"Mpesa Foundation","box 7954-01000","","Thika","","Kenya","254722001111","info@mpesafoundationacademy.ac.ke"
1034,"National Indoor Centre","Independence Park","","Kingston","","Jamaica","+1 876 530-8301","info@badmintonjamaica.org"
1035,"ARC","2711 Pine Grove Rd","","Cumming","GA","U.S.A.","",""
1036,"TBTT","","","Morrisville","NC","U.S.A.","",""
1037,"Streamers","740 Centinela Avenue Suite 101","90302","Inglewood","CA","U.S.A.","424-270-4161","BillBlair@PortalVia.net"
1038,"Max Power Sports","250 King Manor Dr","","King of Prussia","PA","U.S.A.","",""
1039,"Zemgales Olimpiskais centrs","Kronvalda 24","LV-3004","Jelgava","","Latvia","37129546666","yli@badminton.lv"
1040,"""Delfi"" Sports Centre","Ozo str. 14C","","Vilnius","","Lithuania","+370 672 70222","info@badminton.lt"
1041,"Sportove centrum M-Sport Trencin","Ostrov 363","","Zamarovce – Trencin","","Slovakia","",""
1042,"Delfi Sport Center","Ozo str. 14c","","Vilnius","","Lithuania","",""
1043,"IBC2","10 New Maple Ave.","7058","Pine Brook","NJ","U.S.A.","732-549-7190","info@ibcusa.org"
1044,"Pajulahti Sports Institute","Pajulahdentie 167","15560","Nastola","Lahti","Finland","4531718283","events@badmintoneurope.com"
1045,"Gimnasio Olímpico de Ciudad Deportiva de Aguascalientes","Colonia Bonagens s/n Parque IV Centenario","20190","Aguascalientes","Aguascalientes","Mexico","5213344440444","femeba2012@gmail.com"
1046,"Al Arabi Sports Complex","New Salata","","Doha","","Qatar","",""
1047,"ATLANTA RECREATION CLUB","2711 Pine Grove Rd","30041","Atlanta","Georgia","U.S.A.","",""
1048,"310 E High st","3rd Floor","19464","Pottstown","PA","U.S.A.","",""
1049,"St. Jakobshalle Basel","St. Jakobstrasse 390","4052","Basel","","Switzerland","",""
1050,"Utilita Arena Birmingham","King Edwards Road","B1 2AA","Birmingham","","England","",""
1051,"Sport Hall, Bieruń","Warszawska 294","43-155","Bieruń","","Poland","",""
1052,"Pabellon de Tenis de Mesa","Parque del Este Santo Domingo","10149","Santo Domingo","Santo Domingo Este","Dominican Republic","8095440965","gcastillofedobad@gmail.com"
1053,"POLIDEPORTIVO 2 CAR VIDENA","Av.Del Aire Cuadra 9 s/n San Luis","","Lima","Lima","Peru","",""
1054,"Palace of Sports","Sportyvna Square 1","2000","Kyiv","","Ukraine","4524842870","events@badmintoneurope.com"
1055,"Sagrado Corazon de Jesus","","","Guatemala","","Guatemala","",""
1056,"Polideportivo Municipal Arroyo de la Miel","Calle Orujo 2","29631","Benalmádena","Málaga","Spain","",""
1057,"Polideportivo Blancadona","Carrer Cas Raspallar, S 15, 5","7800","Blanca Dona","Ibiza","Spain","",""
1058,"Olympic Reserves Stadium","Bogdan Khmelnitsky Avenue 29 d","49000","Dnіpro","","Ukraine","(056) 749-62-40",""
1059,"Federación Española de Bádminton","Calle Ferraz 16","","Huelva","","Spain","34915428384","spainworldtour@badminton.es"
1060,"Sport hall Centre Dras","Pohorska ulica 57","2000","Maribor","","Slovenia","38631325194","matevz.srekl@gmail.com"
1061,"Sport Hall,” MARECKIE CENTRUM EDUKACYJNO-REKREACYJNE","Ul. Wspólna 40","05-270","Marki","","Poland","",""
1062,"Midwest Badminton Woodridge","8202 Lemont Road","60517","Woodridge","IL","U.S.A.","331-903-3049","events@mbadminton.com"
1063,"Messehalle 5 (Badminton Centre)","Messeplatz 1","A-6850","Dornbirn","","Austria","",""
1064,"Smashville KOP","250 King Manor Dr","19406","King of Prussia","PA","U.S.A.","",""
1065,"Triangle Badminton and Table Tennis","2900 Perimeter Park Dr, Suite# 200","27560","Morrisville","NC","U.S.A.","919-388-0272",""
1066,"Polideportivo Camilo Cano","Partida Muixara s/n","3530","La Nucía","Alicante","Spain","","SpanishInternationalU19@badminton.es"
1067,"New Jersey Badminton Club","2 Changebridge Rd","7045","Montville","NJ","U.S.A.","+1 (201) 898-0382","njbc.info@gmail.com"
1068,"Cabarrus Arena & Events Center","4751 NC Highway 49","28025","Concord","NC","U.S.A.","",""
1069,"Sportna Zala Svilengrad","1 Nencho Hristov Str","","Svilengrad","","Bulgaria","",""
1070,"The Farm Sports","2660 Vickers Dr","80918","Colorado Springs","CO","U.S.A.","",""
1071,"Hotel Mundo Imperial","","","Acapulco","Guerrero","Mexico","","femeba2012@gmail.com"
1072,"Sigulda sports centre","Ata Kronvalda 7A","LV-2150","Sigulda","","Latvia","",""
1073,"Ankara Badminton Olympic Center","dnan Menderes Mah. 1047 Sok. No: 1 Aktepe/Kecioren","6300","Ankara","","Turkiye","",""
1074,"Blue Water Dokken","Gammel Vardevej 82","6700","Esbjerg","","Denmark","4570605076","event@badminton.dk"
1075,"Ankara Badminton Olympic center","Adnan Menderes mah. 1047 sok . no : 1 Aktepe Keçiören","6300","Ankara","Turkey","Turkiye","3123108054","info@badminton.gov.tr"
1076,"Complexe Sportif Régional","Rue du Bois","62120","Aire sur la Lys","","France","","levolant.airois@orange.fr"
1077,"Burnsville High School (enter via Door 1)","600 State Hwy 13","55337","Burnsville","MN","U.S.A.","",""
1078,"CREPS Bordeaux - Gymnase Hand/Bad","653 cours de la liberation","33400","Talence","","France","",""
1079,"Gentofte Badmintonklub","Ved Stadion 4","2820","Gentofte","","Denmark","+45 3965 0400","gbk@gbk.dk"
1080,"Hvidovre Badminton Klub","Bibliotekvej 62","2650","Hvidovre","","Denmark","",""
1081,"Northwest Badminton Academy","13203 NE Spring Blvd","98005","Bellevue","Washington","U.S.A.","425-270-3318","info@northwestbadminton.com"
1082,"Stade de l’Amitié Général Mathieu Kérékou","Cotonou","","Cotonou","","Benin","",""
1083,"CD DEPORTIVA AGUASCALIENTES","Lic. Adolfo López Mateos Ote 1610, Desarrollo Especial Parque IV Centenario, Aguascalientes, Ags.","20190","AGUASCALIENTES","AGUASCALIENTES","Mexico","523344440444","femeba2012@gmail.com"
1084,"Multipurpose sport hall Podčetrtek","Zdraviliška cesta 23","3254","Podčetrtek","","Slovenia","4524842870","events@badmintoneurope.com"
1085,"Täby Racketcenter","Flyghamnsvägen 16","183 64","Täby","","Sweden","",""
1086,"COLISEO DEPORTIVO DE BADMINTON","COLISEO DEPORTIVO CIUDAD DE LOS DEPORTES ZONA 4.","1004","GUATEMALA","GUATEMALA","Guatemala","+502 2295 8640","badmintonguate@gmail.com"
1087,"Midwest Badminton Club - Woodridge","8202 Lemont Road","60517","Woodridge","IL","U.S.A.","331-903-3049","events@mbadminton.com"
1088,"GIMNASIO TEODORO PALACIOS FLORES","26 CALLE, 12-36, ZONA 5, GUATEMALA, GUATEMALA","1005","GUATEMALA","GUATEMALA","Guatemala","+502 2295 8640","badmintonguate@gmail.com"
1089,"Zespół Szkół Mistrzostwa Sportowego w Zakopanem","Ul. Droga do Olczy 26","34-500","Zakopane","","Poland","(+48) 22 412 10 31","w.krawczyk@pzbad.pl"
1090,"SC Sutinska Vrela","Podsusedski trg 14b","10000","Zagreb","","Croatia","",""
1091,"ARENA BADMINTON CLUB","2780 S RESERVOIR ST","91766","POMONA","CA","","626-267-9321",""
1092,"Sportove centrum M-sport Trencin","Ostrov 363","911 05","Zamarovce","Trencin","Slovakia","",""
1093,"University Of Arizona Recreation Center","1400 E 6th St Tucson","85721","Tucson","Arizona","U.S.A.","","uazbadminton@gmail.com"
1094,"Club 28 Badminton","3569 Edgemont st.","19134","Philadelphia","PA","U.S.A.","9177082727","club28.usa@gmail.com"
1095,"Nets On Fire","1871 W Canyon View Dr","84770","St. George","Utah","U.S.A.","",""
1096,"BSFZ Südstadt","Liese Prokop-Platz 1","2344","Maria Enzersdorf","","Austria","",""
1097,"Gospino Polje hall","Liechtensteinov put 10","20000","Dubrovnik","","Croatia","385916412223","rgaljer69@gmail.com"
1098,"Eleftheria Athletic Center","Makarios Sports Center Avenue","2400","Nicosia","","Cyprus","35722449868","badminton@cytanet.com.cy"
1099,"Westenergie Sporthalle","An den Sportstätten 6","45468","Mülheim an der Ruhr","","Germany","",""
1100,"Prakash Padukone Badminton Academy","Padukone-Dravid Centre for Sports Excellence Survey No. 336, Bettahalasuru, Jala Hobli, Taluk Yelahanka,","562157","Bengaluru","Karnataka","India","+91 11414 50524","info@badmintonindia.org"
1101,"Dalum Hallerne","Mejerivej 1","5260","Odense S","","Denmark","",""
1102,"Langeskov Hallerne","Børmosevej 3","5550","Langeskov","","Denmark","",""
1103,"Lugogo Arena","","","Kampala","","Uganda","",""
1104,"Druskininkų sporto centras","M.K. Čiurlionio g. 115a","","Druskininkai","","Lithuania","+370 672 70222","info@badminton.lt"
1105,"Egret Badminton","1251 Basswood Rd.","60173","Schaumburg","IL","U.S.A.","847-285-5788",""
1106,"Elite Badminton Center","33540 Central Ave","94587","Union City","CA","U.S.A.","510-431-3130","elitecenterinfo@gmail.com"
1107,"PAVILION RECREATION COMPLEX","400 SCOTSWOOD ROAD,","29687","TAYLORS","SC","U.S.A.","",""
1108,"Northeast Badminton CLub","142 Belmont Drive","","Somerset","NJ","U.S.A.","",""
1109,"Southwest Recreation Center","3150 Hull Rd","32611","Gainesville","Fl","U.S.A.","(352) 846-1081",""
1110,"City Sport Hall","Masarykova 1313","73514","Orlova - Lutyně","","Czech Republic","",""
1111,"Nicholas Recreation Center","797 W Dayton St.","53715","Madison","WI","U.S.A.","414-319-9055",""
1112,"Sporthall Brezice","Cernelceva cesta 10","8250","Brezice","","Slovenia","38631325194","matevz.srekl@gmail.com"
1113,"Centro de Convenciones","","","Yumbo","Valle","Colombia","",""
1114,"Badminton High Performance Centre","Av Vasco da Gama","2500","Caldas da Rainha","","Portugal","351262839020","events@fpbadminton.pt"
1115,"Palacio de los Deportes Carolina Marín Arena","","","Huelva","","Spain","","alberto.carazo@badminton.es"
1116,"Sport hall Medvode","Ostrovrharjeva 4","1215","Medvode","","Slovenia","",""
1117,"POLIDEPORTIVO MANUEL AVILA CAMACHO","AV. MANUEL AVILA CAMACHO S/N JARDINES DEL COUNTRY","44210","Guadalajara","JALISCO","Mexico","523325075830","femeba2012@gmail.com"
1118,"Alba Club","Alba Club","","Riffa City","Manama","Bahrain","",""
1119,"Canada Elite Badminton & Sports","177 Westcreek Drive","L4L 9N6","Woodbridge","Ontario","Canada","905-944-0607","tournaments@elitebadminton.ca"
1120,"LONG ISLAND BADMINTON CENTER","575 MERRICK AVE.","11590","WESTBURY","NY","U.S.A.","6462713228 / 516-388-7821",""
1121,"Edina High School Gym/Activity Center (enter via door 6)","6754 Valley View Rd","55439","Edina","MN","U.S.A.","",""
1122,"Palacio Nacional de los Deportes""Carlos el Famoso Hernández""","Avenida Juan Pablo II, Diagonal Universitaria, Centro de Gobierno","1101","San Salvador","San Salvador","El Salvador","+503 22709369","fesalbad2001@gmail.com"
1123,"Bellevue Badminton Club (Harbour Pointe)","3616 South Road, Building D","98275","Mukilteo","WA","U.S.A.","425-374-8094",""
1124,"K. D. Jadhav Indoor Hall","Indira Gandhi Sports Complex","110002","New Delhi","Delhi","India","911141450524","indias500@badmintonindia.org"
1125,"Kalevi Spordihall","Juhkentali 12","11316","Tallinn","","Estonia","+372 56492144","yei@badminton.ee"
1126,"Chanhassen High School Gym 3","2200 Lyman Blvd","55317","Chanhassen","MN","U.S.A.","",""
1127,"Jawahar Lal Nehru Indoor Statdium","Biju Pattnaik Colony","753008","Cuttack","Odisha","India","911141450524","entryint@badmintonindia.org"
1128,"Palace of Sports “VENETO Sport”","11v, Heroiv Sevastopolia str.","1000","Kyiv","","Ukraine","+380 50 301 49 03","kharkivintl@gmail.com"
1129,"Mohammad Reza Pouria","Siboyeh Blvd, Shiraz, Iran","","Shiraz","","Iran","(+9821) 88984439-41","info@iranbadminton.org"
1130,"South Jersey Indoor Sports Club","545 NJ-73","8091","West Berlin","NJ","U.S.A.","",""
1131,"Synergy Badminton","44380 Old Warm Springs Blvd","94538","Fremont","CA","U.S.A.","",""
1132,"SPARC Arena NOVI","42775 9 Mile Rd","48375","NOVI","MI","U.S.A.","",""
1133,"Seaton Center","1210 University Dr","40502","Lexington","Kentucky","U.S.A.","",""
1134,"South Jersey Indoor Sports Center","545 North Route 73","","West Berlin","New Jersey","U.S.A.","8568096783","SouthJerseyISC@gmail.com"
1135,"Sport & entertainment hall at Arłamów hotel","Arłamów","38-700","Arłamów","","Poland","+48 516 000 508","w.krawczyk@pzbad.pl"
1136,"Triangle Badminton & Table Tennis","2900 Perimeter Park Dr, #200","27560","Morrisville","NC","U.S.A.","",""
1137,"Rowland High School","2000 S OTTERBEIN AVE","91748","Rowland Heights","CA","","",""
1138,"New Jersey Badminton CLub","2 Changebridge Rd","","Montville","NJ","U.S.A.","",""
1139,"Purdue Badminton Club","355 N Martin Jischke Drivce, West Lafayette, IN 47907","47907","West Lafayette","IN","U.S.A.","765-607-3955","tan284@purdue.edu"
1140,"North Campus Recreation Building","2375 Hubbard Road","48109","Ann Arbor","Michigan","U.S.A.","",""
1141,"Palma Stadium","333 Palmaro","","Suncheon","Jeonronamdo","Korea","8224226173","badmintonkorea@bka.kr"
1142,"Gwangju Yeonju Stadium","278 Geumhwaro Seogu","","Gwangju","Gwangju Metropolitan","Korea","8224226173","badmintonkorea@bka.kr"
1143,"Santa Fe Springs Badminton CLub","11323 SHoemaker Ave.,","","Santa Fe Springs","CA","","",""
1144,"CDM Gallur","C. de Gallur 2","28047","Madrid","","Spain","4531718283","events@badmintoneurope.com"
1145,"Muntinlupa Sports Complex","Tunasan Baywalk Buendia Street, Muntinlupa","1773","Manila","","Philippines","",""
1146,"Palacio Nacional de los Deportes Carlos ""El Famoso"" Hernandez","","","San Salvador","San Salvador","El Salvador","",""
1147,"Täby RacketCenter","Flyghamnsvägen 16","18364","Täby","","Sweden","4687565094",""
1148,"SPARC","42775 9 Mile Rd","","Novi","MI","U.S.A.","",""
1149,"d'Coque Centre National Sportif & culturel","2 Rue Léon Hengen","1745","Luxembourg","Luxembourg","Luxembourg","352661446444","adrien.guignard@feluba.lu"
1150,"Fort Lauderdale Convention Center","1950 Eisenhower Blvd. Hall C","33316","Fort Lauderdale","Florida","U.S.A.","",""
1151,"IMPACT ARENA","MUANGTHONG THANEE","","Bangkok","","Thailand","6622553391","info@badmintonthai.or.th"
1152,"Dras center","Pohorska ulica 57","2000","Maribor","","Slovenia","38631325194","matevz.srekl@gmail.com"
1153,"Bacqiang Gymnasium","","","Bac Giang","Hanoi","Vietnam","",""
1154,"Sport hall Marino Cvetković","Stubište Lipovica 3","51410","Opatija","","Croatia","",""
1155,"Raiffeisen Sportpark","Hüttenbrennergasse 31","8010","Graz","","Austria","","office@autopen.at"
1156,"Polideportivo Municipal de Gandia","Avda del Esports, 4","46701","Gandia","Valencia","Spain","34915428384","spanishinternationalu19@badminton.es"
1157,"Synergy Fremont","44380 Old Warm Springs Blvd","94538","Fremont","CA","U.S.A.","",""
1158,"Mission College - Santa Clara","3000 Mission College Boulevard","95054","Santa Clara","CA","U.S.A.","408-855-5579",""
1159,"Pabellon Tenis de Mesa","Parque del Este","","Santo Domingo","Santo Domingo","Dominican Republic","8095440965","fedobadrd@gmail.com"
1160,"Athletic Arena","Liepu al. 4","LT-35111","Panevezys","","Lithuania","+370 672 70222","rslint2022@badminton.lt"
1161,"Royal Stage","Milnersvej 39","3400","Hillerød","","Denmark","4570605076","event@badminton.dk"
1162,"ISTORA Stadium, Senayan","","13840","Jakarta","","Indonesia","6262218445080","sekjen@pbsi.or.id"
1163,"Sport hall ""Ivan Simeonov""","ul. ""Doctor Nikola Lambrev"" 24","4400","Pazardzhik","","Bulgaria","",""
1164,"La Trocardière","Rue de la Trocardière","44400","Rezé","","France","33652306686","contact@nantes-international.fr"
1165,"AXIATA ARENA","L2-E-10, Enterprise 4,","57000","Kuala Lumpur","","Malaysia","",""
1166,"Høllin á Hálsi","4 Hallarheygur","FO-100","Tórshavn","","Faroe Islands","","FGJI2022@bsf.fo"
1167,"Sport Hall Svilengrad","Nencho Hristov Str.","","Svilengrad","","Bulgaria","",""
1168,"Sports Hall Svilengrad","Nencho Hristov Str.","","Svilengrad","","Bulgaria","",""
1169,"Gymnase Champ Fleuri","8 rue Christol de Sigoyer APPT 32, JARDIN DES SENS","97400","Saint Denis","","Réunion","262692713828","presidentlnbr@gmail.com"
1170,"Parque del Este","","","Santo Domingo","Santo Domingo","Dominican Republic","",""
1171,"UCCS","1420 Austin Bluffs Pkwy","80918","Colorado Springs","CO","U.S.A.","",""
1172,"Baseline Sport Arena","Švermova 4493/32","974 01","Banská Bystrica","","Slovakia","",""
1173,"Egret Badminton in Naperville","1811 High Grove Ln","60540","Naperville","IL","U.S.A.","630-536-8032","egrettournament@gmail.com"
1174,"UNCG Student Recreation Center","1510 Walker Avenue","27403","Greensboro","NC","U.S.A.","336 989 9459",""
1175,"Friedman Jesish Community Center","613 S J Strauss Ln.","18702","Wilkes Barre","PA","U.S.A.","","jeff@ksgoffice.com"
1176,"IBC Pine Brook","10 New Maple Ave","","Pine Brook","NJ","U.S.A.","732-549-7190","info@ibcusa.org"
1177,"Dvorana Centre Stozice","Vojkova cesta 100","1000","Ljubljana","","Slovenia","4531718283","events@badmintoneurope.com"
1178,"LOC Manege","Brīvības 55","LV-3401","Liepaja","","Latvia","",""
1179,"Polideportivo Manuel Novo","Carretera General Tudela, Agüeria o s/n, Tudela Agüeria,","33919","Oviedo","","Spain","","SpanishOpenU19@badminton.es"
1180,"Dushanbe tennis & water sport complex","15, Karamova str., Dushanbe, Republic of Tajikistan","","Dushanbe","","Tajikistan","",""
1181,"National Sports Center","Mongolia, Ulaanbaatar, Baga toiruu, 4th khoroo","14210","ulaanbaatar","Ulaanbaatar","Mongolia","97691117363","mba@badminton.mn"
1182,"Gymnase Hand bad CREPS","653 avenue de la libération","33400","Talence","","France","",""
1183,"Athletic Hall Belgrade","Bulevar Oslobodjenja 54","11000","Belgrade","","Serbia","",""
1184,"Yaounde Sports Complex","","","Yaoundé","","Cameroon","237699525121","odetta252000@gmail.com"
1185,"Complexe Sportif de Bellegrave","Avenue du colonel Robert Jacqui","33600","Pessac","","France","33608625803","future.series@lnaqbad.fr"
1186,"LONG ISLAND BADMINTON CENTER (LIBC)","575 MERRICK AVENUE","11590","WESTBURY","NY","U.S.A.","516-388-7821","2020LIBC@GMAIL.COM"
1187,"Club28 badminton","3569 Edgemont st","19134","Philadelphia","PA","U.S.A.","917.7082727",""
1188,"Maruzen Intec Arena Osaka","","","Osaka","","Japan","",""
1189,"Club France","Francia 75 Colonia Florida Alcaldía Alvaro Obregón","1030","Ciudad de Mexico","Ciudad de Mexico","Mexico","523325075830","femeba2012@gmail.com"
1190,"Zemgale Olympic Center","Kronvalda 24","LV-3001","Jelgava","","Latvia","37129546666","yli@badminton.lv"
1191,"Burnsville High School Gym (enter via Door 1)","600 State Hwy 13","55337","Burnsville","MN","U.S.A.","",""
1192,"Gymnase Institut Régional de Santé Publique (IRSP Ouidah)","Route des Esclaves","BP 384 Ouidah – Béni","Ouidah","Atlantique","Benin","22921341674","irsp@irsp-ouidah.org"
1193,"Hala OSiR Gniezno","ul. Sportowa 3/5","","Gniezno","","Poland","",""
1194,"Club28 badminton Philadelphia","3569 Edgemont st.","19134","Philadelphia","PA","U.S.A.","9177082727","club28.usa@gmail.com"
1195,"Gymnase Institut Régional de Santé Publique )IRSP Ouida)h","Route des Esclaves","BP 384 Ouidah – Béni","Ouidah","Atlantique","Benin","22921341674","irsp@irsp-ouidah.org"
1196,"Centro de Treinamento da CBBd","Avenida Raul Lopes, 1971 – Setor de Esportes – UFPI","","Teresina","","Brazil","",""
1197,"Sportoase Philipssite Leuven","Philipssite 6","3001","Leuven","","Belgium","+32 475 96 61 85","yonexbi@badmintonvlaanderen.be"
1198,"Sport hall Otocec","Grajska cesta 2","8222","Otocec","","Slovenia","",""
1199,"Arise Sports Complex","542 Koomey Rd","","Brookshire","Texas","U.S.A.","310-428-6564",""
1200,"Orange County Badminton Club (OCBC)","1432 N Main St","92867","Orange","CA","U.S.A.","(714) 639-6222","phillipocbc@gmail.com"
1201,"ISPORTZ BADMINTON ARENA","ISPORTZ BADMINTON ARENA Dubey Colony, Mowa","492014","Raipur","Chattisgarh","India","","info@badmintonindia.org"
1202,"Amongrogo Stadium","Amongrogo Stadium","","Yogjakarta","DIY","Indonesia","+62 21 8445080","sekjen@pbsi.id"
1203,"Hala sportowo-widowiskowa Uniwersytetu Medycznego w Lublinie","ul. Witolda Chodźki 15","20-093","Lublin","Lubelskie","Poland","48721347334","w.krawczyk@pzbad.pl"
1204,"SD Sutinska Vrela Zagreb","Podsusedski trg 14b","10000","Zagreb","","Croatia","",""
1205,"Purdue University’s France A. Cordova Recreational Sports Center, Level B–Lower Gym","355 N. Martin Jischke Drive","47907","West Lafayette","Indiana","U.S.A.","",""
1206,"Nguyen Du Stadium","116 Nguyen Du Street Ben Thanh Ward, 1 District Hochiminh City","700000","Hochiminh","","Vietnam","",""
1207,"Desbhakta Tarun Ram Phukan indoor stadium","R.G Baruah Sports Complex Nehru Stadium GUWAHATI","781001","Guwahati","Assam","India","",""
1208,"Dom sportova","Trg Krešimira Ćosića 11","10000","Zagreb","Zagreb","Croatia","385917271302","info@crointer.com"
1209,"Sportove Centrum M-sport Trencin","Ostrov 363","911 05","Trencin","","Slovakia","",""
1210,"Genea Netball Centre","2 Olympic Blvd Sydney Olympic Park","","Sydney","New South Wales","Australia","","julie.carrel.nz@gmail.com"
1211,"Long Island Badminton Center","575 Merrick Ave","","Westbury","NY","U.S.A.","",""
1212,"Red Energy Arena","91 Inglis St","","West Bendigo","Victoria","Australia","",""
1213,"Forker Building 175 & 184","534 Wallace Rd, Ames, IA 50011","50014","Ames","Iowa","U.S.A.","",""
1214,"Jyske Bank Arena","Ørbækvej 350","5220","Odense","","Denmark","",""
1215,"GOR PLATINUM","","13840","Malang","","Indonesia","6262218445080","sekjen@pbsi.or.id"
1216,"Male' Kulhivaru Ekuveni","Maafaiythakurufaanu Magu","20384","Male'","Kaafu","Maldives","9603314057","admin@badmintonmaldives.org.mv"
1217,"Filial Villa Deportiva - Club Regatas Lima (CRL)","Panamericana Sur, Km. 20.5 Villa El Salvador Lima, Perú","","Lima","","Peru","997310369","unidadtecnica@badmintonperu.com"
1218,"Sports hall Sterboholy","U školy 430","102 00","Prague","","Czech Republic","+420 607 705 773","info@praguetournaments.eu"
1219,"Odense Badminton Hal","Godthåbsgade 4-6","5000","Odense","","Denmark","70605076","event@badminton.dk"
1220,"NCBC","2421 Mercantile Dr Suite D","95742","Rancho Cordova","CA","U.S.A.","",""
1221,"UCLA - Student Activities Center (SAC)","220 Westwood Plaza","90095","Los Angeles","CA","U.S.A.","",""
1222,"Pembangunan Jaya Raya Badminton Training Center","Jl. Murai Raya Bintaro","","Tangerang Selatan","Banten","Indonesia","","pb.jayaraya@gmail.com"
1223,"Sterbinszky Hall","Fáy u. 58.","H-1139","Budapest","","Hungary","3614606903","office@badminton.hu"
1224,"Kuwait Olympic Committee Stadiums","Kuwait Olympic Committee Stadiums Jaber Al-Ahmad City, Kuwait","","Jaber Al-Ahmad City","","Kuwait","",""
1225,"Chicago Badminton Academy","570A Telser Rd","60047","Lake Zurich","Illinois","U.S.A.","2244247373","jimmysun@cbadminton.com"
1226,"Prairie Badminton","275 de Baets Street, Unit 2","","Winnipeg","Manitoba","Canada","(204) 663-5499","info@prairiebadminton.ca"
1227,"Sigulda Sports Center","Ata Kronvalda iela 7A","LV-2150","Sigulda","","Latvia","",""
1228,"University of Arizona Recreation Center, South Gym","1400 E 6th Street","85721","Tucson","Arizona","U.S.A.","","uazbadminton@gmail.com"
1229,"Quay Centre","4 Olympic Blvd Sydney Olympic Park","2127","Sydney","New South Wales","Australia","(02) 9714 7600","quaycentre@sopa.nsw.gov.au"
1230,"OYDC ZAMBIA - SPORTS DEVELOPMENT CENTRE","GREAT NORTH ROAD","10101","Lusaka","","Zambia","+260 977702664","jumamuwowo@yahoo.com"
1231,"NETS & TURF","2711 Pine Grove Rd","30041","Cumming","Georgia","U.S.A.","",""
1232,"Silver Creek High School","3434 Silver Creek Road","95121","San Jose","CA","U.S.A.","","scbaddy@gmail.com"
1233,"Miryang Badminton Stadium","26 Sichung-ro Miryang City Gyeong Nam,Korea","50420","Miryang","Gyeong Nam","Korea","8224226173","badmintonkorea@bka.kr"
1234,"The India Club Bahrain","The India Club Bahrain Road No. 825, Zubara Avenue,","","Manama","","Bahrain","33007600","j.ebrahim@bwf.sport"
1235,"Lobatse sports complex indoor hall","BNSC c/o P.O.Box 1404 Gaborone","0","Lobatse","Southern","Botswana","+267 3674000","kunyalalam@yahoo.co.uk"
1236,"The Bahrain Keraleeya Samajam","The Bahrain Keraleeya Samajam","","Manama","","Bahrain","","j.ebrahim@bwf.sport"
1237,"San Francisco School","Colonia Lomas de San Francisco final Calle N1","6015","San Salvador","San Salvador","El Salvador","+503 2270 9369","fesalbad2001@gmail.com"
1238,"Chaengwattana Hall @ Central Plaza Chaengwattana","Chaengwattana Hall @ Central Plaza Chaengwattana Moo 2 99/99 Thanon Chaeng Watthana Pak Kret District,","11120","Nonthaburi","","Thailand","",""
1239,"SPORT WALES NATIONAL CENTRE","Sophia Close","CF11 9SW","Cardiff","","Wales","+44 2920 334 938","enquiries@badminton.wales"
1240,"John Tyers Hall","Access Park Kenilworth","7700","Cape Town","Western Cape","South Africa","27833070595","office@badmintonsa.co.za"
1241,"575 Merrick Ave.","","11590","Westbury","NY","U.S.A.","646-271-3228","info@nycbadminton.com"
1242,"Nets and Turf","2711 Pine grove road","","Cumming","GA","U.S.A.","",""
1243,"Spirit by Maneepong Badminton Club","Amphora Thanyaburi","","Pathumthani","","Thailand","6622553391","info@badmintonthai.or.th"
1244,"Markham Pan Am Centre","","","Markham, Toronto","Ontario","Canada","","Jordan.Naturkach@strathcona.ca"
1245,"Nimibutr Arena","154 ถนน พระรามที่ ๑1 Wang Mai,","10330","Bangkok","","Thailand","",""
1246,"Cottonera Sports Complex","Cottonera Avenue","BML 9020","Cospicua","","Malta","35699821849","tournaments@badmintonmalta.org"
1247,"Austin Badminton","1974 Steam Way","78665","Round Rock","TX","U.S.A.","737-278-2788",""
1248,"A. Le Coq Sport hall","Ihaste tee 7","","Tartu","","Estonia","",""
1249,"A. Le Coq Sports Hall","Ihaste tee 7","","Tartu","","Estonia","",""
1250,"Wilson H.S.","","","Hacienda Heights","CA","U.S.A.","",""
1251,"In de Biessen","Gravin von Schönbornlaan 4","6433AZ","Hoensbroek","","Netherlands","",""
1252,"Frisco Badminton Academy","6226 All Stars Ave","75033","Frisco","TX","U.S.A.","",""
1253,"LIBC","575 Merrick Ave","11590","Westbury","NY","U.S.A.","516-388-7821",""
1254,"Iran Badminton Federation Sports Hall","Iran Badminton Federation Sports Hall No.12, Hejab St, Keshavarz Blvd","","Tehran","","Iran","982188984439","bad.iranfed@yahoo.com"
1255,"Polideportivo Arroyo de la Miel","Calle Orujo 2","29631","Benalmádena","Málaga","Spain","",""
1256,"Happy Birdie Badminton","43921 Boscell Rd","94538","Fremont","CA","U.S.A.","",""
1257,"Badminton Center Pécs","Basamalom u. 33.","7630","Pécs","","Hungary","36303295154","iroda@badminton.hu"
1258,"Arizona Badminton Center","2150 West Broadway Road #107","85202","Mesa","AZ","U.S.A.","602-570-4162","GCoachGC5@cox.net"
1259,"Badminton Center Court Lakewood","3699 Industry Ave.","","Lakewood","California","","",""
1260,"11150 SW Allen Blvd","Suite 200","97005","Beaverton","OR","U.S.A.","5034307861","info@orbadminton.com"
1261,"Midwest Badminton Club Woodridge","8202 Lemont Rd.","60517","Woodridge","IL","U.S.A.","",""
1262,"Synergy","","","Fremont","California","U.S.A.","",""
1263,"SPH Gym 2101","4200 Valley Drive","20742","College Park","MD","U.S.A.","","info@umdclubbadminton.com"
1264,"Herbert Wellness Center","1241 Dickinson Drive 2nd Floor","33146","Coral Gables","FL","U.S.A.","305-284-8500",""
1265,"Ruichang Sports Park Gym","","","Ruichang","","China","",""
1266,"Coliseo de la Ciudad Deportiva","Via Blanca y Boyeros Municipio Cerro","","La Habana","La Habana","Cuba","53 59967506","alberto.ramirez@inder.gob.cu"
1267,"Newark Memorial High School","39375 Cedar Blvd","94560","Newark","CA","U.S.A.","",""
1268,"Arena Jaskółka","Traugutta 3B","33-101","Tarnów","małopolskie","Poland","+48 22 595 24 45","sekretariat@pzbad.pl"
1269,"UGA Ramsey Student Center","330 River Rd","30602","Athens","GA","U.S.A.","",""
1270,"UC Davis Pavilion (U-Center)","750 Orchard Rd","","95616","California","U.S.A.","",""
1271,"Catholic Central West Campus","251 Britannia Blvd","","Lethbridge","AB","Canada","",""
1272,"Chinook High School","259 Britannia Blvd","","Lethbridge","AB","Canada","",""
1273,"Senator Joyce Fairbairn Middle School","301 Rocky Mountain Blvd W","","Lethbridge","AB","Canada","",""
1274,"MBC @ NAPERVILLE","2019 Corporate Ln STE 103","60563","NAPERVILLE","IL","U.S.A.","",""
1275,"Activities and Recreation Center","201 E Peabody Dr","61820","Champaign","Illinois","U.S.A.","",""
1276,"VELO-hall","Noordweg 26","2291 EE","Wateringen","","Netherlands","+31(0)6-54652696","secretary@dutch-international.nl"
1277,"George W. Woodruff Physical Education Center","26 Eagle Row","30322","Atlanta","Georgia","U.S.A.","",""
1278,"Cerritos High School","","","Cerritos","CA","","",""
1279,"SPX 107A&B","Spartan Complex Building, San Jose State University","95112","San Jose","CA","U.S.A.","","badminton@sjsustudents.com"
1280,"Midwest Badminton Club: Buffalo Grove","1362 Barclay Blvd","60089","Buffalo Grove","IL","U.S.A.","847-777-1050","events@mbadminton.com"
1281,"Rowland HIgh School","","","Rowland","","","",""
1282,"Sheikh Rashid Bin Hamdan Indoor Hall, Al Nasr Club","Sheikh Rashid Bin Hamdan Indoor Hall, Al Nasr Club Al Nasr Club, Oud Metha,","","Dubai","","United Arab Emirates","",""
1283,"G.C. Foster College of Physical Education and Sport","Angels Spanish town P.O. St. Catherine Jamaica, West Indies","","Kingston","","Jamaica","",""
1284,"Palaresia","Via Resia 39","39100","Bolzano","","Italy","",""
1285,"Atlanta Badminton Club 2","300 Brogdon Rd,, STE 110","30024","Suwanee","GA","U.S.A.","2697797711","abbagari.siddhartha@gmail.com"
1286,"INTERNATIONAL BADMINTON CENTER EDISON","3775 PARK AVE","8820","EDISON","NJ","U.S.A.","",""
1287,"CBA @ Lake Zurich","570a Telser Rd","60047","Lake Zurich","IL","U.S.A.","",""
1288,"Cypress High School","","","Cypress","California","","",""
1289,"Badmintonhalle Vorarlberg","Messestrasse, Messehalle 5","6850","Dornbirn","","Austria","","office@au17open.at"
1290,"UCSB Robertson Gymnasium","University Road","93117","Isla Vista","CA","U.S.A.","",""
1291,"Morodok Techo National Stadium Badminton Hall","Morodok Techo National Stadium Badminton Hall St Ly Yongphat St","12111","Phnom Penh","","Cambodia","",""
1292,"San Gabrile Valley Badminton Club","9255 Telstar Ave Unit 1","91731","El Monte","California","","",""
1293,"MBC Woodridge","8202 Lemont Rd","60517","Woodridge","IL","U.S.A.","",""
1294,"Nets & Turf","2711 Pine grove road","30041","Cumming","Georgia","U.S.A.","",""
1295,"Arcadia High School","180 Campus Dr.","91006","Arcadia","CA","","",""
1296,"Hickey Gymnasium","350 Howard Way","95616","Davis","","U.S.A.","",""
1297,"Synergy Menlo Park","","","Menlo Park","CA","U.S.A.","",""
1298,"Cosports Badminton & Table Tennis Club","921 Seaborne Ave","V3B 8B2","Port Coquitlam","BC","Canada","(778) 858-0766",""
1299,"Shannon Pohl Badminton Academy/Adversity Volleyball Center","710-720 Corporate Woods Parkway","60061","Vernon Hills","IL","U.S.A.","",""
1300,"Centro Entrenamiento Olimpico","Ramon Cruz 1176","","Santiago","","Chile","","oficina@fedebadchile.cl"
1301,"Gilbert C. Ada Gymnasium","Oleai Sports Complex","","Saipan","","Northern Mariana Islands","",""
1302,"Virgilio TRavieso Soto","Centro Olímpico Juan Pablo Duarte","10122","Santo Domingo","Distrito Nacional","Dominican Republic","8095440965","SantoDomingoOpen@gmail.com"
1303,"Kalnapilis Arena","Parko str. 12","37310","Panevėžys","","Lithuania","37067270222","rslint2023@badminton.lt"
1304,"Pabellón Municipal ""Polideportivo Centro""","C/ Alcalde Oncina Giner 7,","3560","El Campello","Alicante","Spain","",""
1305,"Sport Hall ""Svilengrad""","Nencho Hristov str.","6500","Svilengrad","Svilengrad","Bulgaria","",""
1306,"Teodoro Palacios Flores","12 avenida y 25 calle zona 5","502","Guatemala","Guatemala","Guatemala","50238750421","tecnicabadguate@gmail.com"
1307,"Polideportivo Villa Deportiva, Club Regatas Lima","Km. 20.4 Panamericana Sur Villa El Salvador Lima, Perú","","Lima","","Peru","997310369","unidadtecnica@badmintonperu.com"
1308,"Salle metropolitaine de la Trocardière","91 Rue de la Trocardière","44400","REZE","","France","33652306686","contact@nantes-international.fr"
1309,"MBC NP","2019 Corporate Ln STE 103","60563","Naperville","IL","U.S.A.","",""
1310,"Mongolian Football Federation Futsal Arena","Mongolian Football Federation Futsal Arena Mongolian Football Federation, 15th khoroo, Khan-Uul district,","210746","Ulaanbaatar","","Mongolia","+976 9111 7363","mba@badminton.mn"
1311,"Tian-Mu Arena, University of Taipei","","","Taipei","","Chinese Taipei","",""
1312,"Grandview Heights Secondary School","16987 25 ave","V3Z 0Z9","Surrey","BC","Canada","",""
1313,"The Podium","511 West Dean Ave","99201","Spokane","WA","U.S.A.","",""
1314,"Arena Jaskółka Tarnów TOSiR","Traugutta 3B","33-101","Tarnów","","Poland","4531718283","events@badmintoneurope.com"
1315,"Sport Hall “Vasil Levski”","General Gurko str.5","","Pazardzhik","","Bulgaria","",""
1316,"South Fayette High School (Main Gymnasium)","3640 Old Oakdale Road","15057","McDonald","PA","U.S.A.","",""
1317,"Prienai Arena","Pramonės str. 20","59145","Prienai","","Lithuania","",""
1318,"Mid-America Center","","51501","Council Bluffs","IA","U.S.A.","",""
1319,"Poideportivo 1 CAR La Videna","Avenida del Aire Cuadra 9 - S/N - San Luis","","Lima","Lima","Peru","",""
1320,"Polideportivo 1","Avenida del Aire Cuadra 9 S/N San Luis","","Lima","Lima","Peru","",""
1321,"Jinnam Stadium","","","Yeosu","","Korea","",""
1322,"PB Jaya Raya Bintaro Jaya","Jl. PB Jaya Raya Bintaro Jaya","15312","Tangerang Selatan","Banten","Indonesia","+6221 323656","pb.jayaraya@gmail.com"
1323,"National Badminton Center","Corner Boundary Rd Rose Hill Mauritius","","Rose Hill","","Mauritius","+230 4545158","badminton@intnet.mu"
1324,"The Farm (TBC)","2660 Vickers Drive","80918","Colorado Springs","CO","U.S.A.","",""
1325,"Champ Fleuri Gymnasium","8 rue Christol de Sigoyer","97400","Saint Denis","","Réunion","262692713818","presidentlnbr@gmail.com"
1326,"University of Birmingham","Sport & Fitness Centre Bristol Road","B15 2TT","Birmingham","","England","447769143995","markdownie@badmintonengland.co.uk"
1327,"UNCG Middle College","1510 Walker Avenue","27403","Greensboro","NC","U.S.A.","",""
1328,"EGRET NAPERVILLE","1811 HIGHGROVE LANE","60540","NAPERVILLE","IL","U.S.A.","630-5368032",""
1329,"Nets and turf","2711 Pine grove rd","30041","cumming","GA","U.S.A.","","netsandturftournaments@gmail.com"
1330,"Gymnase Hand-bad CREPS","653 avenue de la libération","33400","Talence","","France","",""
1331,"Arms Police Force Hall","Arms Police Force Hall Halchok","","Kathmandu","","Nepal","",""
1332,"Kotak Pullela Gopichand Badminton Academy","Kotak Pullela Gopichand Badminton Academy Survey No 91, Beside Infosys, Gachibowli,","500032","Hyderabad","","India","",""
1333,"Racquet Center","","","Tacarigua","","Trinidad and Tobago","","chan@oilandgas.com"
1334,"Miami Lakes Athletic Club","15150 Bull Run Road","33014","Miami Lakes","FL","U.S.A.","(305) 820-8025",""
1335,"Forker Building","534 Wallace Rd","50011","Ames","Iowa","U.S.A.","5153373259","yihong19@iastate.edu"
1336,"CODE 2","Magisterio 1549-A","","Guadalajara","Jalisco","Mexico","",""
1337,"GOR PBSI Pancing Medan","GOR PBSI Pancing Medan","20371","Medan","","Indonesia","",""
1338,"Teslim Balogun Stadium, Surulere","Sir Molade Okoya Thomas Indoor Hall Teslim Balogun Stadium (4 courts)","","Surulere","Lagos","Nigeria","+234 8033283558, +234 8036565493","info@badmintonnigeria.org"
1339,"Rimi Olympic Centre","Grostonas street 6B","LV-1013","Riga","","Latvia","37129716026","info@badminton.lv"
1340,"Bellevue Badminton Club - Mukilteo","3616 South Road","98275","Mulkiteo","WA","U.S.A.","",""
1341,"Virginia Beach Sports Center","1045 19th Street","23451","Virginia Beach","Virginia","U.S.A.","757-937-4571",""
1342,"Club 28 badminton Philadelphia","3569 Edgemont St.","","Philaedelphia","PA","U.S.A.","",""
1343,"Skylar Sun Sports Complex","4102 Veteran Dr Building A","77584","Pearland","TX","U.S.A.","","info@skylarsunsports.com"
1344,"DEWAN WAWASAN 2020","DEWAN WAWASAN 2020 Persiaran Wawasan Kangar","1000","Perlis","","Malaysia","",""
1345,"Hall des Arts of Cotonou","Cotonou","BP 384 Ouidah – Béni","Ouidah","Atlantique","Benin","+229 21 34 16 74","irsp@irsp-ouidah.org"
1346,"Hala GOSiR Gniezno","Sportowa 3/5","62-200","Gniezno","Wielkopolskie","Poland","+48 22 595 2445","sekretariat@pzbad.pl"
1347,"Sportni center Otocec","Grajska cesta 2","8222","Otočec","","Slovenia","+ 386 51 257 537","ivancic.matic@gmail.com"
1348,"Capital Badminton Academy - Columbia","9188 Red Branch Road","21045","Columbia","Maryland","U.S.A.","",""
1349,"Primary school Mirna","Cesta na Fužine 1","8233","Mirna","","Slovenia","38631325194","gasper.krivec@outlook.com"
1350,"MALV","1988 Schadt Avenue","18052","Whitehall","PA","U.S.A.","",""
1351,"India Club Bahrain","India Club Bahrain Road No. 825, Zubara Avenue,","","Manama","","Bahrain","",""
1352,"Chaengwattana Hall, Central Plaza Chaengwattana,","99/2 Moo 2, Chaeng Wattana-Parkkred 19 Alley, Pak Kret District,","","Nonthaburi","","Thailand","6622553391","info@badmintonthai.or.th"
1353,"Polideportivo 2 Centro de Alto Rendimiento Villa Deportiva Nacional (VIDENA)","Av. Del Aire Cdra. 9 San Luis Lima, Perú","","Lima","","Peru","997310369","unidadtecnica@badmintonperu.com"
1354,"SD Sutinska vrela","Podsusedski trg 14B","10000","Zagreb","","Croatia","38598479401","silvio@badminton-zagreb.hr"
1355,"Belk Gymnasium","8911 University Rd","28223","Charlotte","NC","U.S.A.","",""
1356,"Arena Badminton & Sport Club","2780 S Reservoir Street","91766","Pomona","California","U.S.A.","",""
1357,"MTN Arena, Lugogo Indoor Stadium","Lugogo Sports Complex, along Jinja Road","256","Kampala","","Uganda","256414254477","info@badmintonuganda.org"
1358,"TMU Kerr Hall Gym","379 Victoria Street","M5B 2K3","Toronto","Ontario","Canada","","info@acesports.ca"
1359,"Binjiang Gymnasium","Binjiang Gymnasium No 996, Jianghong Road, Binjing District, Hangzhou, Zhejiang Province,","","Hangzhou","","China","",""
1360,"Gimnasio Cubierto Mauricio Johnson","Av. Las Delicias, Aragua.","","Maracay","","Venezuela","5804126158340","jordan15032011@gmail.com"
1361,"ICC Gymnasium","10501 Success Lane","","Washington Township","45458","U.S.A.","",""
1362,"E.P. ""Tom"" Sawyer State Park","3000 Freys Hill Rd","40241","Louisville","Kentucky","U.S.A.","",""
1363,"Vantaa Energia Arena","Rajatorpantie 23","1600","Vantaa","","Finland","",""
1364,"Maaspoort Den Bosch","Marathonloop 1","5235 AA","'s-Hertogenbosch","","Netherlands","+31 (0)6 23187167","yonexdutchopen@badminton.nl"
1365,"Cairo Stadium","Cairo Stadium Indoor Halls Complex Nasr City","","Cairo","","Egypt","22625817","ebf1991@yahoo.com"
1366,"Club Ankad","Club Ankad","","Ankawa Erbil","","Iraq","","Van_shawqi@yahoo.com"
1367,"Club 28 Coatesville","255 Mt Airy Road","19320","Coatesville","PA","U.S.A.","",""
1368,"MBC Naperville","2019 Corporate Ln STE 103","60563","Naperville","IL","U.S.A.","",""
1369,"Chengdu Wenjiang Gymnasium","Chengdu Wenjiang Gymnasium No 232, Liucheng Avenue, Wenjiang District, Sichuan Province,","","Chengdu","","China","",""
1370,"Salle OMS Mokhtar Laribi","El Biar, Alger","1600","El biar","Alger","Algeria","21323258273","badalgerie@gmail.com"
1371,"Langeskov hallerne","Børmosevej 3","5550","Langeskov","","Denmark","+45 70 60 50 76","event@badminton.dk"
1372,"Sport hall Kralovka","Nad Kralovskou oborou 1080/51 7-Bubenec","17000","Prague","","Czech Republic","+420 775 112 540","jirasek72@seznam.cz"
1373,"NorCal Badminton Center","2421 Mercantile Drive Suite D","95742","Rancho Cordova","California","U.S.A.","",""
1374,"Glaz Arena","","","Rennes","","France","",""
1375,"TMU - Kerr Hall","","","Toronto","Ontario","Canada","",""
1376,"Ascend Badminton Centre","1305 Commissioners Road E Suite 102","N6M0B8","London","Ontario","Canada","519-838-6655","admin@ascendbadminton.com"
1377,"Brooklyn Badminton Center","14 woodward ave","11385","ridgewood","NY","U.S.A.","6462713228","2023BKBC@GMAIL.COM"
1378,"MBC - Naperville","2019 Corporate Lane #103","60563","Naperville","IL","U.S.A.","630-364-2345","events@mbadminton.com"
1379,"Moradak Techco Stadium","Moradak Techco Stadium","","Phnom Penh","","Cambodia","",""
1380,"Delfi Sporto Centras","Ozo str. 14C","LT-08200","Vilnius","VILNIUS","Lithuania","+370 698 34426","cbc.vilnius@gmail.com"
1381,"Banthongyord Badminton School","Banthongyord Badminton School 136/7, PHUTTHAMONTON SAI 3 Rd BANGPHAI , BANGKHAE","10160","Bangkok","","Thailand","6622553391","info@badmintonthai.or.th"
1382,"Zespół Szkół Rolniczych","Ks. St. Suchowolca 26","15-567","Bialystok","Podlaskie","Poland","+48 602 480 879","lenkiewicz@polishopen.bialystok.pl"
1383,"Nexus Badminton","13960 N Stemmons Fwy","75234","Farmers Branch","Texas","U.S.A.","2147010535","admin@nexusbadminton.com"
1384,"Ramsey Student Center; Gym East","330 River Rd.","30602","Athens","GA","U.S.A.","",""
1385,"OYDC Zambia - Sports Development Centre","Great North Road","","Lusaka","","Zambia","260977702664","jumamuwowo@yahoo.com"
1386,"Malkin Athletic Center, 4th floor","39 Holyoke St","","Cambridge","MA","U.S.A.","",""
1387,"Nets & Turf Arena","2711 Pine grove rd","","Cumming","GA","U.S.A.","",""
1388,"SPARC Arena","42775 9 mile rd","48375","Novi","Michigan","U.S.A.","",""
1389,"chicago badminton academy","570A Telser Rd","60047","Lake Zurich","Illinois","U.S.A.","2244247373","cbacademy1118@gmail.com"
1390,"Club 28 Philadelphia","3569 Edgemont st","19134","Philadelphia","PA","U.S.A.","",""
1391,"1400 E 6th St","","85721","Tucson","Arizona","U.S.A.","(520) 621-8702",""
1392,"Shenzhen Bay Gymnasium","3001 Bin Hai Road","518054","Shenzhen","Guangdong","China","",""
1393,"t","","","Tijuana","","Mexico","",""
1394,"Alnur International School","","","Gaborone","","Botswana","",""
1395,"M-SPORT","Na Ostrove 363 Trencin-Zamarovce","91105","Trencin","Slovakia","Slovakia","421903645790","michal.matejka9@gmail.com"
1396,"Coliseo de Bádminton ""El Polvorín""","Complejo Deportivo ""El Polvorín"", Col. Nicaragua, Calle Los Viveros, Barrio San Jacinto, San Salvado","1101","San Salvador","San Salvador","El Salvador","+503 77466975","fesalbad2001@gmail.com"
1397,"43921 Boscell Rd.","","94538","Fremont","CA","U.S.A.","",""
1398,"GYMNASIUM 4 THAMMASAT UNIVERSITY","Khlong Luang","12120","Pathum Thani","","Thailand","6622553391","info@badmintonthai.or.th"
1399,"Almatau resort","Almatau resort Republic of Kazakhstan, Turkestan region, Tolebi district,","","Shymkent","","Kazakhstan","",""
1400,"A le Coq Sports hall","Ihaste tee 7","51011","Tartu","","Estonia","+372 5697 7153","Tournament@tartutriiton.ee"
1401,"St. Leo University Wellness Center","33701 State Road 52","33574","St. Leo","Florida","U.S.A.","(352) 588-8035",""
1402,"Palais Régional Omnisport Georges Theolade","rond point du PROGT RN2 Matoury","97351","Matoury","","France","0594 29 80 60",""
1403,"ClearOne Badminton Centre (No 3 Rd)","4351 No 3 Road Unit #100","V6X 2C3","Richmond","BC","Canada","(604) 278 0221","tournament@clearonebadminton.com"
1404,"MBC","2019 Corporate Ln STE 103","60563","Naperville","IL","U.S.A.","",""
1405,"Pioneer Badminton Club","586 Territorial Dr # D","60440","Bolingbrook","Illinois","U.S.A.","(630)-410-2349",""
1406,"Westminster High School","14325 Goldenwest St","92683","Westminster","CA","U.S.A.","",""
1407,"Yazd Sports Hall","Yazd Sports Hall","","Yazd","","Iran","",""
1408,"Synergy Fremont (Sun) & Menlo Park (Sat)","","","Menlo Park & Fremont","CA","U.S.A.","",""
1409,"District Sport Complex","Colombo 210 Colombo, Galle Main Road","","Galle","","Sri Lanka","94777442111","rohandesilva@mclarens.lk"
1410,"Badminton Geelong","Leisuretime Sports Precinct 262 Anakie Rd Norlane,","3214","Geelong","Victoria","Australia","",""
1411,"Indoor Stadium","Indoor Stadium District Sports Complex, Dadalla,","","Galle","","Sri Lanka","94777442111","rohandesilva@mclarens.lk"
1412,"University of Washington Intramural Activities Building","3942 Montlake Blvd NE","98195","Seattle","Washington","U.S.A.","","husky.badminton@gmail.com"
1413,"Ramsey Student Center - Gym East","330 River Rd","30602","Athens","Georgia","U.S.A.","",""
1414,"Club 7 Charlotte","3424 Pleasant Plains Road","28104","Stallings","NC","U.S.A.","","info@club7sports.com"
1415,"WP Wagner","6310 Wagner Rd NW,","T6E 4N5","Edmonton","Alberta","Canada","",""
1416,"Vistara Sports","400 W vista ridge mall dr lewisvelle","75067","lewisvelle","Texas","U.S.A.","972-315-7495","tournaments@vistarasports.com"
1417,"Westenergiesporthalle","An den Sportstätten 6","45468","Mülheim an der Ruhr","","Germany","",""
1418,"Arena Porte de la Chapelle","Av. de la Prte de la Chapelle","75018","Paris","","France","",""
1419,"Sportarena ( Sportforum) Berlin","Weißenseer Weg 53","13053","Berlin","Berlin","Germany","",""
1420,"Pioneer Badminton","586 Territorial Dr Suite D","60440","Bolingbrook","Illinois","U.S.A.","",""
1421,"Arena Suwalki","Zarzecze Str. 26","16-400","Suwalki","","Poland","48791809315","polishu17@skbsuwalki.pl"
1422,"School of Public Health Gym 2101","4200 Valley Drive","20742","College Park","MD","U.S.A.","","info@umdclubbadminton.com"
1423,"Wilanów Sport Centre","Wiertnicza 26","02-952","Warsaw","","Poland","48516000508","sekretariat@pzbad.pl"
1424,"Collège St-Sacrement","901 rue St-Louis","J6W 1K1","Terrebonne","Québec","Canada","",""
1425,"Collège Saint-Sacrement","","","Terrebonne","Québec","Canada","",""
1426,"""Energiya"" sports center","""Energiya"" sports center Yeskaliyev str, 175","","Uralsk","ZKO","Kazakhstan","",""
1427,"Cerritos High School Gym","","","Cerritos","Ca","","",""
1428,"Forker 0175","2642 Union Drive","50011","Ames","Iowa","U.S.A.","",""
1429,"The Farm","2660 Vickers Drive","80918","Colorado Springs","CO","U.S.A.","",""
1430,"Complexe Sportif Saint-Raphaël","750 Jacques Bizard Blvd,","H9C 2Y2","L'Île-Bizard","Quebec","Canada","",""
1431,"Synergy Fremont & Menlo Park","","","Menlo Park & Fremont","CA","U.S.A.","",""
1432,"Ningbo Olympic Sports Center","Ningbo Olympic Sports Center","","Ningbo","Zhejiang Province","China","",""
1433,"Gospino Polje Hall","Liechtensteinov put 10","20000","DUBROVNIK","Croatia","Croatia","*385 91641 2223","rgaljer69@gmail.com"
1434,"Glacier Creek Middle School","2800 N Military Rd","53528","Cross Plains","WI","U.S.A.","",""
1435,"Multisport hall","Junacka 3494/8","83104","Bratislava","Slovakia","Slovakia","421905193404","sekretar@bedminton.sk"
1436,"HBB","43921 Boscell Rd","94538","Fremont","ca","U.S.A.","",""
1437,"Vantaa Energia Areena","Rajatorpantie 23","1600","Vantaa","Uusimaa","Finland","358442854179","ann-marie.lairolahti@sulkapallo.fi"
1438,"Smash","9586 Distribution Ave Suite E","92121","San Diego","CA","U.S.A.","",""
1439,"Académie Ste-Thérèse","425 Rue Blainville E","J7E 1N7","Sainte-thérèse","Québec","Canada","",""
1440,"Independence High School","617 N Jackson Ave","","San Jose","CA","U.S.A.","",""
1441,"MBC - BG","1362 Barclay Blvd","60089","Buffalo Grove","IL","U.S.A.","847-777-1050","events@mbadminton.com"
1442,"Club 28 Delaware","217 Lisa Dr","","New castle","Delaware","U.S.A.","9176316713","club28.usa@gmail.com"
1443,"Federación Nacional de Bádminton","Coliseo deportivo ciudad de los deportes zona 4","","Guatemala","Guatemala","Guatemala","50249704150","tecnicabadguate@gmai.com"
1444,"570A TELSER RD","","60047","LAKE ZURICH","IL","U.S.A.","",""
1445,"ISGD Gymnasium","730 South Alpha Bellbrook Road","45305","Sugarcreek","Ohio","U.S.A.","937 626 7101","shahidashraf74@gmail.com"
1446,"Sport Hall Marino Cvetković","Stubište Lipovica 2, Opatija","51410","Opatija","","Croatia","",""
1447,"Mountain Range High School","12500 Huron St","80234","Westminster","CO","U.S.A.","",""
1448,"Lao-Thai sport complex","Lao-Thai sport complex Beungkhayong Village, Sisattanak District, Vientiane Capital, Lao PDR","","Vientiane","","Lao","",""
1449,"Sports Hall of Agricultural School Complex","St. Suchowolca 26","15-567","Białystok","","Poland","+48 602 480 879","lenkiewicz@sportlen.pl"
1450,"Main Gym @ UCSD","","","La Jolla","CA","U.S.A.","8583196970","sungodbaddy@gmail.com"
1451,"New Hope Badminton Academy","1422 NJ-179","","Lambertville","New Jersey","U.S.A.","",""
1452,"The Crane Chinatown","1001 Vine St","19107","Philadelphia","PA","U.S.A.","9176316713",""
1453,"Athletics Arena","Liepų al. 4","LT-35111","Panevėžys","","Lithuania","37067622440","info@badminton.lt"
1454,"“Almatau” Sport Center of Mountain sport and recreation resort","“Almatau” Sport Center of Mountain sport and recreation resort Kazakhstan, Turkestan region, Akbastau village.","","Shymkent","","Kazakhstan","",""
1455,"ELITE BADMINTON CENTER","33540 CENTER AVE","","UNION CITY","CA","U.S.A.","5104313130","EBCCHARITY2023@GMAIL.COM"
1456,"Salle Metropolitaine de la Trocardière","91 Rue de la Trocardière","44400","Reze","","France","33652306686","contact@nantes-international.fr"
1457,"Complejo Deportivo Bicentenariojohnson","Av. 97 Salvador Feo La Cruz Norte Sur, Naguanagua","2005","Valencia","Estado Carabobo","Venezuela","584126158340","jordan15032011@gmail.com"
1458,"Bellevue Badminton Club - Renton","846 Lind Ave SW SW","","Renton","WA","U.S.A.","",""
1459,"Sports Center ""Slana Bara - Klisa""","Sentandrejski put 106b","","Novi Sad","","Serbia","381653481154","events@badminton.org.rs"
1460,"Forth Worth Convention Center","","","Fort Worth, Texas","","U.S.A.","",""
1461,"Bulgarian Junior Open Championship","Sport Hall ""Vasil Levski""","","Pazardzhik","Pazardzhik","Bulgaria","35929867781","badpz69@yahoo.com"
1462,"GOR AMONG RAGA","GOR AMONG RAGA Semaki, Kec. Umbulharjo,","55166","Yogyakarta","","Indonesia","",""
1463,"Gymnasium Champ Fleuri","8 rue Christol de Sigoyer","97400","Saint Denis","","Réunion","262692713818","reunionopen@gmail.com"
1464,"Salle Bellegrave","Av. du Colonel Robert Jacqui","33600","Pessac","","France","+33 7 49 37 44 40","future.series@lnaqbad.fr"
